Accessible Entrances,Accessible Washrooms,Accessible Parking,Individual Service,Wait Accommodations,location_name,city,website,phone,postal_code,address,province,monday,tuesday,wednesday,thursday,friday,latitude,longitude
No,No,No,No,Yes,Michael Garron Hospital - Emergency Department,Toronto,https://www.tehn.ca/programs-services/covid-19-assessment-centre,416-469-6858,M4C 3E7,825 Coxwell Avenue,ON,00:00-00:00,00:00-00:00,00:00-00:00,00:00-00:00,00:00-00:00,43.68991,-79.324858
Yes,Yes,Yes,No,Yes,Mount Sinai Hospital,Toronto,https://www.sinaihealth.ca/covid19/,416-586-4800 ext. 4123,M5G 1X5,600 University Avenue,ON,08:00-16:00,08:00-16:00,08:00-16:00,08:00-16:00,08:00-16:00,43.657575,-79.390096
Yes,Partial: there is a wheelchair-accessible washroom in the asymptomatic testing area,Yes,"No ASL interpretation, yes assassistance navigating the centre",Yes,North York General Hospital - Branson,Toronto,https://nygh.on.ca/covid-19-updates,416-756-6000,M2R 1N5,555 Finch Avenue West,ON,08:00-20:00,08:00-20:00,08:00-20:00,08:00-20:00,08:00-20:00,43.772477,-79.448125
No,Yes,Yes,Yes,Yes,North York General Hospital - Emergency Department,Toronto,,,M2K 1E1,"4001 Leslie Street, Ambulance Bay",ON,,,,,,43.769147,-79.362744
No,No,No,No,Yes,Scarborough Health Network - Birchmount,Scarborough,https://www.shn.ca/covid19-assess/,"416-495-2601 ",M1W 3W3,3030 Birchmount Road,ON,07:30-19:00,07:30-19:00,07:30-19:00,07:30-19:00,07:30-19:00,43.801819,-79.309055
No,No,Yes,Yes,Yes,Scarborough Health Network Centenary Site,Scarborough,https://www.shn.ca/covid19-assess/,"416-495-2601 ",M1E 4B9,2867 Ellesmere Road,ON,07:30-19:00,07:30-19:00,07:30-19:00,07:30-19:00,07:30-19:00,43.780444,-79.20456
Yes,Yes,Yes,Yes,Yes,Sunnybrook Health Sciences Centre,Toronto,https://sunnybrook.ca/content/?page=novel-coronavirus-covid-19-assessment-centre,,M4N 1J8,80 Armistice Drive,ON,09:00-19:30,09:00-19:30,09:00-19:30,09:00-19:30,09:00-19:30,43.724868,-79.373697
No,No,No,Yes,No,St. Joseph's Health Centre,Toronto,https://unityhealth.to/assessment-centres/,"416-530-6720 ",M6R 1B5,30 The Queensway,ON,08:00-20:00,08:00-20:00,08:00-20:00,08:00-20:00,08:00-20:00,43.640709,-79.450139
Yes,Yes,No,Yes,No,Milton District Hospital,Milton,https://www.haltonhealthcare.on.ca/covid-19-info/covid-19-testing,905-203-7963,L9T 9K1,725 Bronte Street South,ON,08:00-17:00,08:00-17:00,08:00-17:00,08:00-17:00,08:00-17:00,43.497418,-79.868476
No,No,No,Yes,Yes,Oakville Trafalgar Memorial Hospital,Oakville,https://www.haltonhealthcare.on.ca/covid-19-info/covid-19-testing,905-203-7963,L6M 0L8,3001 Hospital Gate,ON,08:00-20:00,08:00-20:00,08:00-20:00,08:00-20:00,08:00-20:00,43.450869,-79.763927
No,Yes,No,Yes,Yes,Georgetown Hospital,Georgetown,https://www.haltonhealthcare.on.ca/covid-19-info/covid-19-testing,905-203-7963,L7G 2B8,1 Princess Anne Drive,ON,,,08:00-16:00,,,43.644985,-79.933321
Yes,Yes,Yes,Yes,Yes,MacKenzie Health,Richmond Hill,https://www.mackenziehealth.ca/en/about-us/get-the-latest-information-on-covid-19.aspx,905-883-1212 ext. 2004,L4C 4Z3,10 Trench Street,ON,10:00-21:30,10:00-21:30,10:00-21:30,10:00-21:30,10:00-21:30,43.870017,-79.450278
Yes,Yes,No,Yes,No,Southlake Regional Health Centre,Newmarket,https://southlake.ca/,289-803-2199,L3Y 2P3,474 Davis Drive,ON,08:00-21:00,08:00-21:00,08:00-21:00,08:00-21:00,08:00-21:00,44.05929,-79.458347
Yes,Yes,Yes,No (Except language line for interpretation),It is possible to reserve time slots,Credit Valley â€“ Drive-Thru,Mississauga,https://trilliumhealthpartners.ca/covid-19/A/assessment.html#starthere,,L5M 2N1,2200 Eglinton Avenue West,ON,08:30-19:30,08:30-19:30,08:30-19:30,08:30-19:30,08:30-19:30,43.558655,-79.703279
Yes,No,Yes,Yes,Yes,Lakeridge Health - Oshawa,Oshawa,https://www.lakeridgehealth.on.ca/en/patientsandvisitors/novel-coronavirus-2019-ncov.asp,,L1G 2B9,1 Hospital Court,ON,09:00-20:00,09:00-20:00,09:00-20:00,09:00-20:00,09:00-20:00,43.905529,-78.869215
No,No,Yes,No,Yes,Lakeridge Health - Ajax Pickering,Ajax,https://www.lakeridgehealth.on.ca/en/patientsandvisitors/novel-coronavirus-2019-ncov.asp,,L1S 2J4,580 Harwood Avenue South,ON,08:00-18:00,08:00-18:00,08:00-18:00,08:00-18:00,08:00-18:00,43.836799,-79.017114
Yes,No,Yes,Yes,Yes,Kirkland and District Hospital,Kirkland Lake,,705-568-2127,P2N 3P4,145 Government Road East,ON,09:00-13:00,09:00-13:00,09:00-13:00,09:00-13:00,09:00-13:00,48.153552,-80.014725
Yes,No,No,No,Yes,Headwaters Health Care Centre,Orangeville,https://www.headwatershealth.ca/,833-442-2001,L9W 4X9,100 Rolling Hills Drive,ON,10:00-22:00,10:00-22:00,10:00-22:00,10:00-22:00,10:00-22:00,43.920776,-80.072523
No,Yes,No,No,Yes,Bracebridge Rotary Centre,Bracebridge,https://www.mahc.ca/en/services/covid19.aspx#,888-383-7009,P1L 1E2,131 Wellington Street,ON,09:00-17:00,09:00-17:00,09:00-17:00,09:00-17:00,09:00-17:00,45.037419,-79.318023
Yes,No,Yes,Yes,Yes,Huntsville District Memorial Hospital,Huntsville,https://www.mahc.ca/en/services/covid19.aspx#,888-383-7009,P1H 1H7,100 Frank Miller Drive,ON,09:00-17:00,09:00-17:00,09:00-17:00,09:00-17:00,09:00-17:00,45.339214,-79.20568
Yes,Yes,Yes,No,Yes,Orillia Soldiers' Memorial Hospital,Orillia,https://www.osmh.on.ca/covid-19/,888-589-4109,"L3V 6H2

",100 University Avenue,ON,11:00-18:30,11:00-18:30,11:00-18:30,11:00-18:30,11:00-18:30,44.589157,-79.455401
No,No,Yes,No,Yes,Barrie Community Health Centre,Barrie,https://barriehealth.ca/,,L4N 6M2,490 Huronia Road,ON,08:30-16:30,08:30-16:30,08:30-16:30,08:30-16:30,08:30-16:30,44.34716,-79.665693
Yes,Yes,Yes,No,Yes,Stevenson Memorial Hospital,Alliston,http://www.stevensonhospital.ca/news/index.html?id=265,249-501-0383,L9R 1W7,200 Fletcher Crescent,ON,09:00-17:00,,09:00-17:00,09:00-17:00,09:00-17:00,44.155578,-79.875078
No,Yes,No,Yes,No,Almonte General Hospital,Almonte,http://www.almontegeneral.com/assessmentcentre,613-325-1208,K0A 1A0,75 Spring Street,ON,10:00-18:00,10:00-18:00,10:00-18:00,10:00-18:00,10:00-18:00,45.228961,-76.189452
No,Yes,Yes,Yes,Yes,Brockville General Hospital,Brockville,https://www.brockvillegeneralhospital.ca/en/patient-care/covid-19-coronavirus.aspx#,613-704-1441,K6V 7J5,100 Magedoma Boulevard,ON,10:00-17:30,10:00-17:30,10:00-17:30,10:00-17:30,10:00-17:30,44.610024,-75.699937
No,No,No,Yes,No,Cornwall COVID-19 Assessment Centre,Cornwall,"https://eohu.ca/en/covid/covid-19-testing-assessment-centres    ",343-475-0160,K6H 4M3,850 McConnell Avenue,ON,08:00-20:00,08:00-16:00,08:00-16:00,08:00-20:00,08:00-16:00,45.030101,-74.717964
No,Yes,No,No,Yes,Haliburton Highlands Health Services,Haliburton,https://www.haliburtoncares.ca/,705-457-1212 ext. 6,K0M 1S0,7217 Gelert Road,ON,09:00-16:00,09:00-16:00,09:00-16:00,09:00-16:00,09:00-15:00,45.039054,-78.528165
No,Yes,No,Yes,Yes,Rockland COVID-19 Assessment Centre,Rockland,"https://eohu.ca/en/covid/covid-19-testing-assessment-centres  ","800-267-7120 ",K4K 0B4,2741 Chamberland Street,ON,08:00-20:00,08:00-20:00,08:00-20:00,08:00-20:00,08:00-16:00,45.544511,-75.301242
Yes,Yes,No,Yes,Yes,Lennox and Addington County General Hospital,Napanee,http://web.lacgh.napanee.on.ca/,613-354-8254,K7R 2Z4,12 Richmond Park Drive,ON,08:30-15:30,08:30-15:30,09:00-15:00,08:30-15:30,09:00-15:00,44.24154935,-76.96730797
No,Yes,No,No,No,Akwesasne COVID-19 Assessment Centre,Akwesasne,http://www.akwesasne.ca/covid-19-novel-coronavirus-information/,613-575-5005 ext. 3704 or 613-575-2331 ext. 3702,H0M 1A0,31 Hilltop Drive,QC,08:00-16:00,08:00-16:00,08:00-16:00,08:00-16:00,08:00-16:00,44.999832,-74.654378
Yes,Yes,Yes,No,No,North Hastings COVID-19 Assessment Center,Bancroft,https://www.qhc.on.ca/covid-19.php,613-332-2825 ext. 6222,K0L 1C0,1 Manor Lane,ON,10:00-18:00,10:00-18:00,10:00-18:00,10:00-18:00,10:00-18:00,45.055092,-77.864208
No,Yes,No,No,Yes,Perth and Smiths Falls District Hospital - Smiths Falls Site,Smiths Falls,https://psfdh.on.ca/2020/04/03/community-assessment-centre/,613-283-2330 ext. 1401,K7A 2H9,60 Cornelia Street West,ON,08:00-18:00,08:00-18:00,08:00-18:00,08:00-18:00,08:00-18:00,44.907454,-76.027508
No,Yes,Yes,No,No,Quinte Healthcare - Quinte Secondary School,Belleville,https://www.qhc.on.ca/covid-19.php,613-961-5544,K8P 2G3,45 College Street West,ON,09:00-17:00,09:00-17:00,09:00-17:00,09:00-17:00,09:00-17:00,44.17531,-77.393179
Yes,Yes,Yes,Yes,No,Cobden Arena,Cobden,https://rcvtac.ca/,844-727-6404,K0J 1K0,43 Astrolabe Road,ON,09:00-11:00,,,,09:00-11:00,45.623129,-76.879507
Yes,No,Yes,No,No,Civic Centre,Petawawa,https://rcvtac.ca/,844-727-6404,K8H 3H5,16 Civic Centre Road,ON,,,,,09:00-11:00,45.894435,-77.259937
No,No,No,No,No,Pembroke Assessment Centre,Pembroke,https://rcvtac.ca/,844-727-6404,K8A 6W5,80 Richardson Crescent,ON,,12:00-6:00,,,09:00-3:00,45.78177,-77.127702
Yes,No,Yes,No,No,Trent Hills COVID19 Assessment Centre,Campbellford,https://www.thfht.com/wp-content/uploads/2020/05/PRESS-RELEASE-May-25-2020-AC-Final.pdf,"705-395-1801 ",K0L 1L0,146 Oliver Road,ON,09:00-17:00,09:00-17:00,09:00-17:00,09:00-17:00,,44.31271,-77.790044
No,Yes,No,No,Yes,Atikokan Family Health Team,Atikokan,https://atikokanfht.com/,807-597-8781 ext. 0,P0T 1C0,101 Zuke Road,ON,09:00-16:00,09:00-16:00,09:00-16:00,09:00-16:00,09:00-16:00,48.753128,-91.600594
Yes,Yes,No,No,Yes,Hearst COVID-19 Assessment Centre,Hearst,http://www.porcupinehu.on.ca/en/your-health/infectious-diseases/novel-coronavirus/covid-assessment-centres/,705-372-2913,P0L 1N0,713 Front Street,ON,08:30-11:30,08:30-11:30,08:30-11:30,08:30-11:30,08:30-11:30,49.688956,-83.66072
No,Yes,Yes,Yes,No,Chapleau Health Services,Chapleau,https://www.sschs.ca/general/home.html,705-864-2568,P0M 1K0,2 Broomhead Road,ON,12:00-16:00,12:00-16:00,12:00-16:00,12:00-16:00,09:00-13:00,47.841198,-83.414963
Yes,No,No,Yes,No,NEOMO Medical,Sudbury,https://www.hsnsudbury.ca/portalen/Patients-and-Visitors/COVID-19/COVID-19-Assessment-Centre,705-671-7373,P3E 3X9,885 Prete Street,ON,08:00-16:00,08:00-16:00,08:00-16:00,08:00-16:00,08:00-16:00,46.473037,-81.006321
No,No,No,Yes,No,Primacy Medical Centre,Sudbury,https://www.hsnsudbury.ca/portalen/Patients-and-Visitors/COVID-19/COVID-19-Assessment-Centre,705-671-7373,P3A 1Z8,1485 Lasalle Boulevard,ON,11:00-19:00,11:00-19:00,11:00-19:00,11:00-19:00,11:00-19:00,46.521729,-80.939584
No,Yes,No,No,No,Elliot Lake Family Health Team,Elliot Lake,http://www.elfht.com/,705-461-8882,P5A 1Y9,31 Nova Scotia Walk,ON,08:00-16:00,08:00-16:00,08:00-16:00,08:00-16:00,08:00-16:00,46.38584,-82.649431
Yes,No,Yes,Yes,Yes,Englehart District Hospital,Englehart,http://www.timiskaminghu.com/90484/covid-19,705-568-2127,P0J 1H0,63 Fifth Street,ON,09:00-13:00,09:00-13:00,09:00-13:00,09:00-13:00,09:00-13:00,47.822706,-79.879251
Yes,Yes,No,No,Yes,Espanola & Area COVID Mobile Assessment Centre,Espanola,http://www.espanolaregionalhospital.ca/covid-19,705-869-1420 ext. 4500,P5E 1R4,825 McKinnon Drive,ON,08:00-16:00,08:00-16:00,08:00-16:00,08:00-16:00,08:00-16:00,46.248923,-81.780886
No,No,Yes,No,No,Hornepayne Community Hospital,Hornepayne,https://www.porcupinehu.on.ca/en/your-health/infectious-diseases/novel-coronavirus/covid-assessment-centres/,807-868-2442 ext. 5230,P0M 1Z0,278 Front Street,ON,09:30-11:30&13:00-14:00,09:30-11:30&13:00-14:00,09:30-11:30&13:00-14:00,09:30-11:30&13:00-14:00,09:30-11:30&13:00-14:00,49.212129,-84.774749
No,No,No,Yes,Yes,Lake of the Woods District Hospital,Kenora,http://www.lwdh.on.ca/,807-468-9861 ext. 2483,P9N 3W7,21 Sylvan Street,ON,08:30-15:30,08:30-15:30,08:30-15:30,08:30-15:30,08:30-15:30,49.768091,-94.499429
No,Yes,Yes,No,Yes,Community Health Services Building,Fort Frances,https://www.riversidehealthcare.ca/,807-274-3261 ext. 4913,P9A 2B7,206 Victoria Avenue,ON,08:00-16:00,08:00-16:00,08:00-16:00,08:00-16:00,08:00-16:00,48.607046,-93.392275
No,Yes,Yes,Yes,No,Manitoulin Health Centre,Mindemoya,http://www.mhc.on.ca/covid-19,705-368-2300,P0P 1S0,2120B Highway 551,ON,13:00-17:00,13:00-17:00,13:00-17:00,13:00-17:00,13:00-17:00,45.738205,-82.166694
Yes,Yes,No,Yes,No,Mattawa Hospital,Mattawa,https://www.mattawahealth.ca/News/mattawa-assessment-centre,705-744-5511 ext. 0,P0H 1V0,217 Turcotte Park Road,ON,08:00-12:00,,08:00-12:00,,08:00-12:00,46.311018,-78.713456
Yes,No,No,Yes,No,Anson General Hospital site,Iroquois Falls,https://www.porcupinehu.on.ca/en/your-health/infectious-diseases/novel-coronavirus/covid-assessment-centres/,888-962-8718,P0K 1E0,58 Anson Drive,ON,,09:00-13:00,,09:00-13:00,,48.769108,-80.685429
Yes,Yes,No,No,Yes,The Lady Minto Hospital/Boy Scout Hall,"Cochrane ",https://www.porcupinehu.on.ca/en/your-health/infectious-diseases/novel-coronavirus/covid-assessment-centres/,888-962-8718,P0L 1C0,226-5th Street,ON,09:00-13:00,,09:00-13:00,,,49.065516,-81.021907
Yes,No,No,Yes,Yes,Nipigon District Memorial Hospital,Nipigon,http://www.ndfht.ca,807-887-5645,P0T 2J0,125 Hogan Road,ON,13:00-16:00,13:00-16:00,13:00-16:00,13:00-16:00,09:00-11:00,49.015611,-88.275905
No,No,Yes,Yes,Yes,North Bay Regional Health Centre,North Bay,,705-474-8600 ext. 4110,P1B 5A4,50 College Drive,ON,09:00-17:00,09:00-17:00,09:00-17:00,09:00-17:00,09:00-17:00,46.334984,-79.49471
No,No,Yes,Yes,No,North of Superior Health Group - Marathon (Wilson site),Marathon,https://www.tbdhu.com/coronavirus,888-294-6630,P0T 2E0,26 Peninsula Road,ON,14:00-16:00,14:00-16:00,14:00-16:00,14:00-16:00,14:00-16:00,48.718573,-86.3754
No,Yes,No,Yes,Yes,North Shore Health Network - Blind River,Blind River,http://www.algomapublichealth.com/disease-and-illness/infectious-diseases/novel-coronavirus/#assessment,705-356-2265 ext. 2661,P0R 1B0,525 Causley Street,ON,08:00-18:00,08:00-18:00,08:00-18:00,08:00-18:00,08:00-18:00,46.187422,-82.924052
Yes,Yes,No,No,No,North Shore Health Network - Thessalon,Thessalon,http://www.algomapublichealth.com/disease-and-illness/infectious-diseases/novel-coronavirus/#assessment,705-356-2265 ext. 2662,P0R 1L0,135 Dawson Drive,ON,08:00-16:00,08:00-16:00,08:00-16:00,08:00-16:00,08:00-16:00,46.263058,-83.562473
No,No,No,Yes,No,SantÃ© Manitouwadge Health,Manitouwadge,https://www.nwhu.on.ca/covid19/Pages/self-assessment.aspx,807-826-3251 ext. 221,P0T 2C0,1 Health Care Crescent,ON,08:00-19:00,08:00-19:00,08:00-19:00,08:00-19:00,08:00-19:00,49.127701,-85.824681
No,No,No,Yes,No,Sault Area Hospital / Kal Tire,Sault Ste. Marie,http://www.algomapublichealth.com/disease-and-illness/infectious-diseases/novel-coronavirus/#assessment,705-759-3434 ext. 7152,P6B 5X5,165 Drive In Road,ON,08:00-22:00,08:00-22:00,08:00-22:00,08:00-22:00,08:00-22:00,46.547984,-84.321432
Yes,No,Yes,Yes,No,Sensenbrenner Hospital / Le Centre des Loisirs,Kapuskasing,https://www.porcupinehu.on.ca/en/your-health/infectious-diseases/novel-coronavirus/covid-assessment-centres/,705-367-4613,P5N 1J6,7 Aurora Avenue,ON,,08:30-12:00,,08:30-12:00,08:30-12:00,49.419325,-82.429848
Yes,Yes,No,Yes,No,Meno Ya Win Health Centre,Sioux Lookout,https://slmhc.on.ca/about/covid-19-information/covid-19-assessment-centre/,807-737-5880,P8T 1B4,1 Meno Ya Win Way,ON,08:00-16:00,08:00-16:00,08:00-16:00,08:00-16:00,08:00-16:00,50.106023,-91.92795
No,No,Yes,Yes,No,Smooth Rock Falls Hospital,Smooth Rock Falls,https://www.porcupinehu.on.ca/en/your-health/infectious-diseases/novel-coronavirus/covid-assessment-centres/,705-338-2781 ext. 3229,P0L 2B0,107 Kelly Road,ON,,09:00-11:00,,09:00-11:00,,49.272619,-81.610334
No,Yes,No,Yes,No,Superior North EMS Community Paramedicine Program,Thunder Bay,https://www.tbdhu.com/coronavirus,807-625-5900,P7B 2M6,1408 Brown Street,ON,07:00-19:00,07:00-19:00,07:00-19:00,07:00-19:00,07:00-19:00,48.365919,-89.28123
No,Yes,Yes,Yes,No,Temiskaming Hospital,Temiskaming Shores,https://temiskaming-hospital.com/tem/,705-648-1844,P0J 1P0,421 Shepherdson Road,ON,09:00-12:00&13:00-16:00,09:00-12:00&13:00-16:00,09:00-12:00&13:00-16:00,09:00-12:00&13:00-16:00,09:00-12:00&13:00-16:00,47.495213,-79.693163
No,Yes,No,Yes,Yes,Thunder Bay Assessment Centre,Thunder Bay,https://www.tbdhu.com/coronavirus,807-935-8100,P7B 6V4,980 Oliver Road,ON,08:00-20:00,08:00-20:00,08:00-20:00,08:00-20:00,08:00-20:00,48.424784,-89.269319
Yes,Yes,No,Yes,Yes,Fort Albany Hospital,Fort Albany,https://www.waha.ca/covid-19/,705-336-2294 ext. 326,P0L 1H0,5 Airport Road,ON,13:00-16:00,13:00-16:00,13:00-16:00,13:00-16:00,,52.206719,-81.684853
No,No,Yes,Yes,No,Attawapiskat Hospital,Attawapiskat,https://www.waha.ca/covid-19/,705-336-2294 ext. 326,P0L 1A0,972 Riverside East,ON,08:00-16:00,08:00-16:00,08:00-16:00,08:00-16:00,08:00-16:00,52.922613,-82.425772
Yes,Yes,Yes,No,Yes,Moosonee Health Centre,"Moosonee ",https://www.waha.ca/covid-19/,705-336-2294 ext. 326,P0L 1Y0,5 Percy's Way,ON,08:00-16:00,08:00-16:00,08:00-16:00,08:00-16:00,08:00-16:00,51.271219,-80.65086
Yes,Yes,No,No,No,Kashechewan Health Services,Kashechewan,https://www.waha.ca/covid-19/,705-336-2294 ext. 326,P0L 1S0,,ON,08:00-16:00,08:00-16:00,08:00-16:00,08:00-16:00,08:00-16:00,0,0
Yes,No,No,Yes,Yes,Peawanuck Nursing Station,"Peawanuck ",https://www.waha.ca/covid-19/,705-336-2294 ext. 326,P0L 2H0,,ON,08:00-16:00,08:00-16:00,08:00-16:00,08:00-16:00,08:00-16:00,0,0
Yes,Yes,No,Yes,No,West Nipissing General Hospital,Sturgeon Falls,https://www.myhealthunit.ca/en/health-topics/coronavirus.asp,705-580-2186,P2B 2Y6,219 O'Hara Street,ON,12:00-16:00,12:00-16:00,,12:00-16:00,12:00-16:00,46.367086,-79.917254
Yes,No,Yes,Yes,Yes,West Parry Sound Health Centre,Parry Sound,https://www.myhealthunit.ca/en/health-topics/coronavirus.asp,705-746-4540 ext. 5030,P2A 2G5,"70 Joseph Street, Unit 105 & 106",ON,08:00-16:00,08:00-16:00,08:00-16:00,08:00-16:00,08:00-16:00,45.35937,-80.042996
Yes,No,No,Yes,No,"North of Superior Health Group - McCausland, Terrace Bay ",Terrace Bay,,807-825-3235,P0T 2W0,20B Cartier Road,ON,10:00-12:00,10:00-12:00,10:00-12:00,10:00-12:00,,48.780226,-87.106507
No,No,Yes,Yes,Yes,Twin Bridges Nurse Practitioner Clinic,Sarnia,http://tbnplc.com/,226-776-9030,N7T 2M0,153 Christina Street South,ON,16:00-20:00,16:00-20:00,16:00-20:00,16:00-20:00,,42.968947,-82.408908
No,Yes,Yes,Yes,Yes,Brant Community Healthcare System,Brantford,https://www.bchsys.org/en/covid-19-online-scheduling.aspx,519-751-5818,N3S2E4,79 Market Street South,ON,08:00-22:00,08:00-22:00,08:00-22:00,08:00-22:00,08:00-22:00,43.135386,-80.263542
No,Yes,No,No,Yes,Cambridge Assessment Centre,Cambridge,https://www.cmh.org/patients-visitors/service-resumption-covid-19/covid-19-testing,226-895-1050,N3C 3T2,215 Holiday Inn Drive,ON,08:30-20:30,08:30-20:30,08:30-20:30,08:30-20:30,08:30-20:30,43.41699,-80.320331
Yes,Yes,Yes,Yes,Yes,Chatham-Kent Health Alliance,Chatham,http://www.assessmentbooking.ca,519-436-2556,N7M 5W4,"1001 Grand Avenue West ",ON,09:00-17:00,09:00-17:00,09:00-17:00,09:00-17:00,09:00-17:00,42.39433,-82.222332
No,No,No,Yes,No,Erie Shores Healthcare,Leamington,,519-326-2373 ext. 4263,N8H 1N9,194 Talbot Street West,ON,08:30-18:00,08:30-18:00,08:30-18:00,08:30-18:00,08:30-18:00,42.048807,-82.614178
Yes,Yes,No,Yes,No,Grand River Hospital COVID-19 Testing Centre,Kitchener,https://www.smgh.ca/covid-19-testing-available-for-k-w-residents-with-symptoms-starting-may-16/,519-749-4300 ext. 6824,N2G 1G3,835 King Street West,ON,07:30-18:30,07:30-18:30,07:30-18:30,07:30-18:30,07:30-18:30,43.456239,-80.511992
Yes,Yes,No,No,Yes,Grand River Hospital - Drive Thru COVID-19 Assessment Center,Kitchener,https://www.grhosp.on.ca/,226-747-5049,N2G 1H3,15 Charles Street West,ON,07:30-18:00,07:30-18:00,07:30-18:00,07:30-18:00,07:30-18:00,43.449228,-80.491156
Yes,No,Yes,Yes,Yes,Grey Bruce Health Services - Owen Sound,Owen Sound,https://gbhs.simplybook.me/v2/,519-378-1466,N4K 6C1,"1100 16th Avenue East, Unit C",ON,10:00-20:00,10:00-20:00,10:00-20:00,10:00-20:00,10:00-20:00,44.571059,-80.915745
No,Yes,No,No,Yes,Dave Andreychuk Mountain Arena Assessment Centre,Hamilton,https://www.hamilton.ca/coronavirus/assessment-centres,905-974-9848,L9A 2N3,25 Hester Street,ON,,10:00-16:00,10:00-16:00,10:00-16:00,10:00-16:00,43.22559,-79.880934
Yes,Yes,No,Yes,Yes,Hamilton Health Sciences,Hamilton,http://www.HamiltonCovidTest.ca,905-974-9848,L8S 1A4,690 Main Street West,ON,11:00-17:00,09:00-17:00,09:00-17:00,09:00-17:00,09:00-17:00,43.26044,-79.897864
No,Yes,No,No,No,Hanover and District Hospital,Hanover,"https://www.hanoverhospital.on.ca/news.php?pgid=121 ",,N4N 1N1,90 7th Avenue,ON,12:00-18:00,12:00-18:00,12:00-18:00,12:00-18:00,12:00-18:00,44.141506,-81.029323
No,No,No,No,Yes,Joseph Brant Hospital,"Burlington ",https://www.josephbranthospital.ca/en/redevelopment-expansion/covid-19-assessment-testing.asp?_mid_=33300,905-632-3737 ext. 6550,L7S 0A2,1245 Lakeshore Boulevard,ON,08:00-19:00,08:00-18:00,08:00-18:00,08:00-18:00,08:00-18:00,43.317101,-79.802344
Yes,Yes,No,No,No,Oakridge Arena,London,https://covidtestinglm.ca/,"519-667-6886 ",N6H 2Z2,825 Valetta Street,ON,09:00-17:00,09:00-17:00,09:00-17:00,09:00-17:00,09:00-17:00,42.975279,-81.305895
Yes,No,No,No,Yes,Niagara Health Greater Niagara General Site,Niagara Falls,https://www.niagarahealth.on.ca/centres,905-378-4647 ext. 42819,L2E 6X2,5546 Portage Road,ON,09:00-17:00,09:00-17:00,09:00-17:00,09:00-17:00,09:00-17:00,43.094126,-79.089606
Yes,Yes,No,No,No,Niagara Health St. Catharines Site,St. Catharines,https://www.niagarahealth.on.ca/centres,905-378-4647 ext. 42819,L2S 0A9,1200 Fourth Avenue,ON,08:00-18:00,08:00-18:00,08:00-18:00,08:00-18:00,08:00-18:00,43.153843,-79.278522
No,No,No,No,No,Rural Lambton Assessment Center,Wyoming,https://lambtonpublichealth.ca/2019-novel-coronavirus/testing-criteria/,519-882-2500,N0N 1T0,596 Broadway Street,ON,09:00-19:00,09:00-19:00,09:00-19:00,09:00-19:00,09:00-16:00,42.948664,-82.119038
Yes,Yes,No,No,Yes,Six Nations COVID-19 Assessment & Drive-Through Test Centre,Ohsweken,,,N0A 1M0,1738 Fourth Line Road,ON,08:00-20:00,08:00-20:00,08:00-20:00,08:00-20:00,08:00-20:00,43.069122,-80.122986
Yes,Yes,Yes,No,Yes,St. Joseph's Healthcare Hamilton - East End,Hamilton,http://www.HamiltonCovidTest.ca,905-974-9848,L8G 5E4,2757 King Street East,ON,16:00-22:00,16:00-22:00,16:00-22:00,16:00-22:00,16:00-22:00,43.2218,-79.774373
No,No,Yes,Yes,No,Carling Heights Optimist Community Centre,London,"http://www.covidtestinglm.ca ",,N5Y 6L3,656 Elizabeth Street,ON,09:00-19:00,09:00-19:00,09:00-19:00,09:00-19:00,09:00-19:00,42.998736,-81.228895
Yes,No,No,No,No,St. Mary's General Hospital - Bathurst Site,Waterloo,https://covid19.smgh.ca:4433/,519-885-9517,N2V 2C5,"50 Bathurst Drive, Unit 1",ON,09:00-17:00,09:00-17:00,09:00-17:00,09:00-17:00,09:00-17:00,43.507454,-80.538638
No,No,No,Yes,Yes,St. Thomas Elgin General Hospital,St. Thomas,https://www.stegh.on.ca/node/626,519-631-2030 ext. 6210,N5R 5C4,"189 Elm Street ",ON,08:00-18:00,08:00-18:00,08:00-18:00,08:00-18:00,08:00-18:00,42.763425,-81.180145
Yes,No,No,Yes,No,Tillsonburg District Memorial Hospital,Tillsonburg,https://www.tillsonburghospital.on.ca/about-tdmh/covid-19/,855-905-6148,N4G 1V4,17 Bear Street,ON,08:00-16:00,08:00-16:00,08:00-16:00,08:00-16:00,08:00-16:00,42.863656,-80.733757
Yes,Yes,Yes,No,Yes,West Haldimand General Hospital,Hagersville,https://www.whgh.ca/,905-768-3311 ext. 1113,N0A 1H0,75 Parkview Road,ON,08:30-17:30,08:30-17:30,08:30-17:30,08:30-17:30,08:30-17:30,42.959342,-80.041081
No,No,No,Yes,No,Windsor Regional Hospital - Ouellette Campus,Windsor,https://www.wrh.on.ca/OnlineBooking,"519-973-4443 ",N9A 1E1,1030 Ouellette Avenue,ON,08:00-19:00,08:00-19:00,08:00-19:00,08:00-19:00,08:00-19:00,42.309167,-83.031869
Yes,Yes,Yes,No,Yes,Niagara Health - Welland Hospital Site (WHS),Welland,https://www.niagarahealth.on.ca/centres,905-378-4647 ext. 42819,L3B 4W6,65 Third Street,ON,09:00-17:00,,09:00-17:00,09:00-17:00,09:00-17:00,42.979233,-79.24921
No,Yes,No,No,Yes,Killaloe - Killaloe Curling Club/Renfrew County Virtual Triage and Assessment Centre,Killaloe,https://rcvtac.ca/,844-727-6404,K0J 2A0,34 Cameron Street,ON,,,,14:00-15:30,,45.55808,-77.415574
No,No,Yes,Yes,No,"South Georgian Bay Regional Assessment Centre ",Collingwood,http://www.gbfht.ca/cac,705-444-5885,L9Y 1N6,490 Ontario Street,ON,09:00-17:00,09:00-17:00,09:00-17:00,09:00-17:00,09:00-17:00,44.503928,-80.201516
Yes,Yes,No,No,Yes,Midland Assessment Centre,Midland,http://gbgh.on.ca/covid-19-novel-coronavirus-updates/,705-529-1025,L4R 4P4,1156 St. Andrews Drive,ON,08:00-16:00,08:00-20:00,08:00-16:00,08:00-20:00,08:00-16:00,44.74184,-79.912455
No,Yes,Yes,Yes,No,"Markham Stouffville Hospital ",Markham,https://www.msh.on.ca/,,L3P 7P3,381 Church Street,ON,09:00-19:00,09:00-19:00,09:00-19:00,09:00-19:00,09:00-19:00,43.884138,-79.231961
No,Yes,Yes,No,No,Mississauga Hospital - Clinical Administrative Building,Mississauga,"trilliumhealthpartners.ca/covid-19/A/assessment.html#starthere ",,L5B 1M9,15 Bronte College Court,ON,08:30-19:30,08:30-19:30,08:30-19:30,08:30-19:30,08:30-19:30,43.572542,-79.60644
No,Yes,Yes,No,No,COVID-19 Trillium Health Partners - Mississauga S,Mississauga,https://trilliumhealthpartners.ca/covid-19/A/assessment.html#starthere,,L5M 2N1,2200 Eglinton Avenue West,ON,08:30-19:30,08:30-19:30,08:30-19:30,08:30-19:30,08:30-19:30,43.558655,-79.703279
Yes,No,Yes,Yes,Yes,William Osler Health System - Etobicoke COVID 19 Testing Centre,Etobicoke,https://www.williamoslerhs.ca/coronavirus,905-487-1249,M9V 1R8,101 Humber College Boulevard,ON,08:00-19:00,08:00-19:00,08:00-19:00,08:00-19:00,08:00-19:00,43.729001,-79.597572
No,No,Yes,No,Yes,William Osler Health System - Brampton COVID 19 Testing Centre,Brampton,https://www.williamoslerhs.ca/coronavirus,905-487-1249,L6Y 5B3,20 Lynch Street,ON,14:00-21:00,14:00-21:00,14:00-21:00,14:00-21:00,14:00-21:00,43.652793,-79.735957
No,No,No,Yes,No,"COVID-19 CHEO Assessment Centre for Infants, Children and Youth at Brewer Park Arena",Ottawa,https://www.ottawapublichealth.ca/en/shared-content/assessment-centres.aspx,613-737-7600 ext. 6720,K1S 5T1,151 Brewer Way,ON,08:30-19:30,08:30-19:30,08:30-19:30,08:30-19:30,08:30-15:30,45.389239,-75.690478
No,Yes,Yes,No,No,COVID-19 Assessment Centre for Adults at Brewer Park Arena,Ottawa,https://www.ottawapublichealth.ca/en/shared-content/assessment-centres.aspx,613-737-8193,K1S 5T1,151 Brewer Way,ON,08:30-19:30,08:30-19:30,08:30-19:30,08:30-19:30,08:30-15:30,45.389239,-75.690478
Yes,No,Yes,No,No,"Akausivik Inuit Family Health Team - COVID-19 Assessment Centre ",Ottawa,https://eohu.ca/en/covid-19-novel-coronavirus,613-740-0999,K1L 0A4,"24 Selkirk Street, Suite 300",ON,09:00-17:00,09:00-17:00,09:00-17:00,09:00-17:00,09:00-17:00,45.431716,-75.667688
Yes,Yes,No,No,No,Hawkesbury COVID-19 Assessment Centre,Hawkesbury,https://eohu.ca/en/covid/covid-19-testing-assessment-centres,613-632-1111 ext. 53800,K6A 3N9,750 Laurier Street,ON,09:00-17:00,09:00-17:00,09:00-17:00,09:00-17:00,09:00-17:00,45.603834,-74.598607
No,No,Yes,Yes,Yes,Casselman COVID-19 Testing Centre,Casselman,"https://eohu.ca/fr/covid/covid-19-testing-assessment-centres ",800-267-8260,K0A 1M0,710 Principale Street,ON,08:00-16:00,08:00-16:00,08:00-16:00,08:00-16:00,08:00-16:00,45.312555,-75.086104
No,No,Yes,Yes,Yes,COVID-19 Care and Testing Centre â€“ Heron,Ottawa,https://hopitalmontfort.com/en/second-covid-19-care-clinic-opening-ottawa-east-thursday,613-746-4621,K1V 6A6,1485 Heron Road,ON,09:00-15:30,09:00-15:30,09:00-15:30,09:00-15:30,09:00-15:30,45.38042,-75.654826
No,No,No,Yes,Yes,Kingston Assessment Centre,Kingston,https://kingstonhsc.ca/patients-families-and-visitors/covid-19-information/community-assessment-centre,613-548-2376,K7M 9B1,51 Heakes Lane,ON,09:00-16:00,09:00-16:00,09:00-16:00,09:00-16:00,09:00-16:00,44.218676,-76.521757
No,Yes,Yes,Yes,Yes,Prince Edward Covid-19 Assessment Centre - Prince Edward Community Centre,Picton,https://www.qhc.on.ca/covid-19.php,613-813-6864,K0K 2T0,375 Main Street,ON,09:00-17:00,09:00-17:00,09:00-17:00,09:00-17:00,09:00-17:00,44.008797,-77.139402
No,Yes,Yes,No,No,"COVID-19 Care and Testing Centre â€“  Moodie ",Ottawa,https://www.ottawapublichealth.ca/en/shared-content/assessment-centres.aspx,,K2H 8A8,595 Moodie Drive,ON,09:00-15:30,09:00-15:30,09:00-15:30,09:00-15:30,09:00-15:30,45.310814,-75.825601
No,Yes,Yes,No,Yes,Quinte West COVID-19 Assessment Centre/Duncan McDonald Memorial Community Gardens Arena,Trenton,https://www.qhc.on.ca/covid-19.php,613-961-5544,K8V 5S6,8 Couch Crescent,ON,09:00-17:00,09:00-17:00,09:00-17:00,09:00-17:00,09:00-17:00,44.102899,-77.569555
Yes,No,No,Yes,Yes,Deep River Assessment Centre,Deep River,https://rcvtac.ca/,844-727-6404,K0J 1P0,37 Banting Drive,ON,,,11:00-3:00,,09:00-11:00,46.09198,-77.476037
Yes,Yes,Yes,Yes,Yes,Arnprior Assessment Centre,Arnprior,https://rcvtac.ca/,844-727-6404,K7S 2B7,91 Meehan Street,ON,,,,09:00-3:00,,45.434099,-76.358417
No,No,No,No,Yes,Eganville - Renfrew County Virtual Triage and Assessment Centre,Eganville,https://rcvtac.ca/,844-727-6404,K0J 1T0,178 Jane Street,ON,,,,,14:00-16:00,45.541852,-77.105656
No,No,No,No,No,Renfrew Assessment Centre,Renfrew,https://rcvtac.ca/,844-727-6404,K7V 3Z8,1005 Castleford Road,ON,12:00-6:00,,,,,45.501648,-76.63828
Yes,No,No,No,No,Barry's Bay - Renfrew County Virtual Triage and Assessment Centre,Barry's Bay,https://rcvtac.ca/,844-727-6404,K0J 1B0,65 Arena Road,ON,,,11:00-3:00,,,45.488686,-77.668164
No,No,Yes,No,No,RMH COVID-19 Assessment Centre,Lindsay,https://www.rmh.org/covid-19,705-328-6217,K9V 4M8,10 Angeline Street North,ON,09:30-17:30,09:30-17:30,09:30-17:30,09:30-17:30,09:30-17:30,44.352402,-78.751362
Yes,No,Yes,No,Yes,Winchester COVID-19 Assessment Centre- Lions Club Hall,Winchester,https://eohu.ca/en/covid/covid-19-testing-assessment-centres,"800-267-7120 ",K0C 2K0,515 Albert Street,ON,12:00-18:00,12:00-18:00,12:00-18:00,12:00-18:00,12:00-18:00,45.092745,-75.350378
Yes,No,No,No,No,Peterborough COVID Assessment Centre - Northcrest Arena,Peterborough,https://www.prhc.on.ca/,,K9L 1P8,100 Marina Boulevard,ON,10:00-18:00,10:00-18:00,10:00-18:00,10:00-18:00,10:00-18:00,44.336095,-78.315978
Yes,Yes,No,Yes,No,Peterborough Regional Health Centre,Peterborough,https://www.prhc.on.ca/about-us/covid-19-novel-coronavirus/,705-876-5086,K9J 7C6,1 Hospital Drive,ON,08:00-16:00,08:00-16:00,08:00-16:00,08:00-16:00,08:00-16:00,44.300025,-78.347609
No,No,Yes,Yes,No,"Northumberland Hills Hospital ",Cobourg,,905-377-7783,K9A 5W6,1000 Depalma Drive,ON,08:00-16:00,08:00-16:00,08:00-16:00,08:00-16:00,08:00-16:00,43.976426,-78.202208
Yes,No,No,Yes,No,Health Sciences North - Assessment Centre,Sudbury,https://www.hsnsudbury.ca/portalen/Patients-and-Visitors/COVID-19/COVID-19-Assessment-Centre,705-671-7373,P3E 3Z9,2050 Regent Street,ON,09:00-17:00,09:00-17:00,09:00-17:00,09:00-17:00,09:00-17:00,46.451074,-80.99822
Yes,Yes,No,No,Yes,"Dingwall Medical Clinic Building ","Dryden ",http://www.drhc.on.ca/dryden-regional-health-centre-opens/,807-223-3737,P8N 2Z6,40 Goodall Street,ON,08:00-12:00&12:30-16:00,08:00-12:00&12:30-16:00,08:00-12:00&12:30-16:00,08:00-12:00&12:30-16:00,08:00-12:00&12:30-16:00,49.769556,-92.840763
No,Yes,No,No,No,Greenstone Assessment Centre,Geraldton,http://www.geraldtondh.com/hospital-triage-area---covid-19,807-854-0051,P0T 1M0,510 Hogarth Avenue,ON,08:00-16:00,08:00-16:00,08:00-16:00,08:00-16:00,08:00-16:00,49.723382,-86.95697
No,No,No,No,Yes,Lady Dunn Health Centre,Wawa,https://www.ldhc.com/,705-914-1114,P0S 1K0,17 Government Road West,ON,08:30-16:30,08:30-20:00,08:30-16:30,08:30-20:00,08:30-16:30,47.987685,-84.78018
No,No,Yes,No,Yes,"Rainy River Health Centre ",Rainy River,https://www.riversidehealthcare.ca/,807-274-3261 ext. 4913,P9A 2B7,207 Victoria Avenue,ON,13:00-15:00,13:00-15:00,13:00-15:00,13:00-15:00,13:00-15:00,48.607083,-93.39302
No,No,Yes,Yes,Yes,Red Lake/ Ear Falls Assessment Centre,Red Lake,https://www.nwhu.on.ca/covid19/Pages/self-assessment.aspx,807-727-7035,P0V 2M0,51G Highway 105,ON,09:00-15:00,09:00-15:00,09:00-15:00,09:00-15:00,09:00-15:00,51.013295,-93.822435
Yes,Yes,No,Yes,Yes,Timmins COVID-19 Assessment Centre,Timmins,https://www.porcupinehu.on.ca/en/your-health/infectious-diseases/novel-coronavirus/covid-assessment-centres/,705-267-0224,P4N 8P2,651 Ross Avenue East,ON,08:30-12:00&13:15-16:00,08:30-12:00&13:15-16:00,08:30-12:00&13:15-16:00,08:30-12:00&13:15-16:00,08:30-12:00&13:15-16:00,48.486008,-81.315668
No,Yes,Yes,No,Yes,Weeneebayko Area Health Authority,Moose Factory,https://www.waha.ca/covid-19/,705-658-4220,P0L 1W0,19 Hospital Drive,ON,13:00-16:00,13:00-16:00,13:00-16:00,13:00-16:00,13:00-16:00,51.25027,-80.616541
Yes,No,Yes,No,No,Humber River Hospital Assessment Centre - Finch,Toronto,https://www.hrh.ca/covid-19/,416-747-5474,M3N 1N1,2111 Finch Avenue West,ON,11:00-19:00,11:00-19:00,11:00-19:00,11:00-19:00,11:00-19:00,43.754813,-79.525921
No,Yes,Yes,No,No,Michael Garron Hospital COVID-19 Assessment Centre,Toronto,https://www.tehn.ca/,416-469-6858,M4C 3E7,825 Coxwell Avenue,ON,08:00-19:30,08:00-19:30,08:00-19:30,08:00-19:30,08:00-19:30,43.68991,-79.324858
No,No,Yes,Yes,No,Taylor-Massey (Crescent Town) Temporary Testing Site,Toronto,https://ethp.ca/main/covid19-testing,416-613-8061,M4C 5M1,4 The Market Place,ON,13:00-18:30,13:00-18:30,13:00-18:30,,,43.695869,-79.292138
No,Yes,Yes,No,Yes,"Toronto Western Hospital ",Toronto,https://www.uhn.ca/Covid19,,M5T 2S7,347 Bathurst Street,ON,08:00-20:00,08:00-20:00,08:00-20:00,08:00-20:00,08:00-20:00,43.652594,-79.405856
Yes,Yes,No,Yes,No,St. Michael's Hospital,Toronto,https://unityhealth.to/assessment-centres/,416-864-5800,M5B 1A6,38 Shuter Street,ON,08:00-18:00,08:00-18:00,08:00-18:00,08:00-18:00,08:00-18:00,43.654829,-79.378003
Yes,Yes,No,No,No,Women's College Hospital,Toronto,https://www.womenscollegehospital.ca/assessmentcentre,,M5S 1B2,76 Grenville Street,ON,08:30-19:30,08:30-19:30,08:30-19:30,08:30-19:30,08:30-19:30,43.661634,-79.387628
Yes,Yes,No,No,Yes,Goderich COVID Assessment Centre - Memorial Arena,Goderich,https://www.hpph.ca/en/news/coronavirus-covid19-update.aspx#Testing-tracing-and-results-for-COVID-19,519-524-6060 ext. 263,N7A 3NS,180 McDonald Street,ON,10:00-16:00,10:00-16:00,10:00-16:00,10:00-16:00,10:00-16:00,43.736999,-81.713945
No,No,Yes,Yes,Yes,Guelph General Hospital,Guelph,https://www.wdgpublichealth.ca/your-health/covid-19-information-public/assessment-centres-wdg,226-773-1922,N1G 4P5,400 Southgate Drive,ON,08:00-20:00,08:00-20:00,08:00-20:00,08:00-20:00,08:00-20:00,43.500949,-80.219051
No,Yes,No,No,Yes,"Listowel Wingham Hospitals Alliance ",Listowel,https://lwha.ca/covid-19-up-to-date-information-you-need-to-know/,519-291-4200,N4W 2P5,255 Elizabeth Street East,ON,14:00-19:00,14:00-19:00,14:00-19:00,14:00-19:00,14:00-19:00,43.7336,-80.948919
Yes,No,Yes,No,No,The Wellington Assessment Centre - Fergus,Fergus,"http://www.whcacovid.com ",226-383-2415,N1M 1M3,235 Union Street East,ON,10:00-18:00,10:00-18:00,10:00-18:00,10:00-18:00,10:00-18:00,43.705713,-80.373354
Yes,No,Yes,No,No,South Bruce Grey Health Centre - Kincardine Site,Kincardine,https://www.sbghc.on.ca/,226-257-1500,N2Z 1J4,1199 Queen Street,ON,10:00-18:00,10:00-18:00,10:00-18:00,10:00-18:00,10:00-18:00,44.189085,-81.625465
Yes,No,Yes,Yes,Yes,Grand Bend Testing Centre,Grand Bend,http://www.GBACHC.ca/COVID-19,519-238-2362 ext. 111,N0M 1T0,69 Main Street East,ON,13:30-16:00,13:30-16:00,13:30-16:00,13:30-16:00,13:30-16:00,43.343664,-81.480958
No,Yes,Yes,No,No,Kitchener-Waterloo-Wilmot-Wellesley-Woolwich (KW4) COVID-19 Assessment Centre - Westmount Plaza,Waterloo,,855-414-2255,N2L 6J7,50 Westmount Road North,ON,09:00-16:00,09:00-16:00,09:00-16:00,09:00-16:00,09:00-16:00,43.46128,-80.537704
No,No,Yes,No,No,"Woodstock General Hospital ",Woodstock,https://www.wgh.on.ca/,855-905-6148,N4V 0A4,310 Juliana Drive,ON,10:00-20:00,10:00-20:00,10:00-20:00,10:00-20:00,10:00-20:00,43.106722,-80.753799
No,Yes,Yes,No,Yes,Huron Perth Healthcare Alliance COVID-19 Assessment Centre,Stratford,http://www.hpha.ca,519-272-8210 ext. 2747,N5A 7S7,353 McCarthy Road,ON,09:30-20:30,09:30-20:30,09:30-20:30,09:30-20:30,09:30-20:30,43.385942,-80.984148
Yes,Yes,Yes,Yes,No,Royal Victoria Regional Health Centre - COVID-19 Testing Centre,Barrie,https://www.rvh.on.ca,705-797-3120,L4M 6K9,29 Sperling Drive,ON,08:00-20:00,08:00-20:00,08:00-20:00,08:00-20:00,08:00-20:00,44.41129,-79.68511
Yes,Yes,Yes,Yes,No,North Durham COVID-19 Assessment Centre,Port Perry,https://www.lakeridgehealth.on.ca/en/patientsandvisitors/novel-coronavirus-2019-ncov.asp,905-985-3358,L9L 1Z4,19 Jeffery Street,ON,12:00-20:00,12:00-20:00,12:00-20:00,12:00-20:00,12:00-16:00,44.086166,-78.953206
Yes,No,No,No,Yes,Goderich Assessment Centre,Goderich,https://www.hpph.ca/en/news/coronavirus-covid19-update.aspx#Testing-tracing-and-results-for-COVID-19,519-524-6060 ext. 263,N7A 3N4,185 Keays Street,ON,10:00-16:00,10:00-16:00,10:00-16:00,10:00-16:00,10:00-16:00,43.736945,-81.711951
Yes,No,No,Yes,Yes,Clarington COVID-19 Assessment Centre,Bowmanville,"http://www.covidswab.lh.ca ",905-668-2020,L1C 3K2,2440 Durham Region Highway 2,ON,08:00-12:00 & 12:30-17:00,11:00-20:00,08:00-12:00 & 12:30-17:00,11:00-20:00,08:00-12:00 & 12:30-17:00,43.912289,-78.703852
Yes,No,Yes,No,No,Windsor Regional Hospital - St Clair Campus Assessment Centre,Windsor,https://www.wrh.on.ca/COVID19AssessmentCentre,"519-973-4443 ",N9A 6S4,2000 Talbot Road West,ON,08:00-19:00,08:00-19:00,08:00-19:00,08:00-19:00,08:00-19:00,42.249258,-83.020319
Yes,Yes,No,No,No,Mackenzie Health - Vaughan,Maple,,905-883-1212 ext. 2004,L6A 4H7,101-9401 Jane Street,ON,,11:30-18:30,,11:30-18:30,,43.835792,-79.531739
No,Yes,No,Yes,Yes,Temagami Medical Centre and Family Health Team,Temagami,,705-569-3244,P0H 2H0,17 O'Connor Drive,ON,08:30-16:30,08:30-16:30,08:30-16:30,08:30-16:30,08:30-16:30,47.06283,-79.787304
No,Yes,Yes,Yes,No,St. Michael's Catholic Church,Douglas,https://rcvtac.ca/,844-727-6404,K0J 1S0,5390 Highway 60,ON,,,14:00-16:00,,,45.515474,-76.946671
No,No,No,Yes,Yes,Bracebridge Assessment Centre,Bracebridge,https://www.mahc.ca/en/services/muskoka-assessment-centre.aspx,888-383-7009,P1L 2E4,75 Ann Street,ON,09:00-17:00,09:00-17:00,09:00-17:00,09:00-17:00,09:00-17:00,45.047677,-79.314766
No,Yes,Yes,No,No,"City Hall/NAC testing site ",Ottawa,https://www.ottawapublichealth.ca/en/shared-content/assessment-centres.aspx,613-737-8193,K1P 1E3,63 Albert Street,ON,10:00-18:00,10:00-18:00,10:00-18:00,10:00-18:00,10:00-18:00,45.422398,-75.694926
No,Yes,No,No,Yes,Huntsville COVID-19 Assessment Centre,Huntsville,https://www.simcoemuskokahealth.org/Topics/COVID-19/AssessmentCentresandTesting,,P1H 1P5,20 Park Drive,ON,09:00-13:00,,09:00-13:00,,09:00-13:00,45.32321,-79.213295
Yes,Yes,Yes,Yes,No,Michael Garron Hospital - Crescent Town Health Centre,East York,,,M4C 5M1,4 The Market Place,ON,12:00-19:00,12:00-19:00,12:00-19:00,12:00-19:00,12:00-19:00,43.696005,-79.29209
Yes,No,No,No,No,"Haldimand War Memorial Hospital ",Dunnville,http://www.hwmh.ca,905-774-7431,N1A 2P7,400 Broad Street,ON,09:00-11:00&12:00-14:00,,09:00-11:00&12:00-14:00,,09:00-11:00&12:00-14:00,42.905645,-79.625175
Yes,No,Yes,Yes,Yes,Haileybury Family Health Team,Haileybury,,705-672-3371,P0J 1K0,95 Meridian Avenue,ON,08:30-16:30,08:30-16:30,08:30-16:30,08:30-16:30,08:30-12:30,47.438646,-79.631821
Yes,Yes,No,Yes,Yes,Alexandria COVID-19 Assessment Centre,Alexandria,https://eohu.ca/fr/covid/covid-19-testing-assessment-centres,800-267-7120,K0C 1A0,20260 Country Road 43,ON,,,,,,45.30067,-74.629736
Yes,Yes,No,No,Yes,160 Main Street South - Shoppers Drug Mart,Brampton,https://stores.shoppersdrugmart.ca/en/store/705/,905-451-0111,"L6W 2E1 ",160 Main Street South,ON,08:00-00:00,08:00-00:00,08:00-00:00,08:00-00:00,08:00-00:00,43.6782516,-79.747611
No,Yes,No,Yes,Yes,10665 Bramalea Road - Shoppers Drug Mart,Brampton,https://stores.shoppersdrugmart.ca/en/store/1447/,905-793-2011,L6R 3P4,10665 Bramalea Road,ON,08:00-22:00,08:00-22:00,08:00-22:00,08:00-22:00,08:00-22:00,43.7573939,-79.760753
Yes,Yes,No,No,No,34 A Avondale Boulevard - Shoppers Drug Mart,Brampton,https://stores.shoppersdrugmart.ca/en/store/701/,905-793-4444,L6T 1H3,34 A Avondale Boulevard,ON,09:00-21:00,09:00-21:00,09:00-21:00,09:00-21:00,09:00-21:00,43.7073945,-79.699115
Yes,No,Yes,Yes,No,366 Main Street North - Shoppers Drug Mart,Brampton,https://stores.shoppersdrugmart.ca/en/store/1353/,905-456-0167,L6V 1P8,366 Main Street North,ON,08:00-00:00,08:00-00:00,08:00-00:00,08:00-00:00,08:00-00:00,43.6950221,-79.771375
Yes,No,No,Yes,Yes,10048 McLaughlin Road - Shoppers Drug Mart,Brampton,https://stores.shoppersdrugmart.ca/en/store/1199/,905-846-4444,L7A 2X6,10048 McLaughlin Road,ON,08:00-22:00,08:00-22:00,08:00-22:00,08:00-22:00,08:00-22:00,43.6963884,-79.799117
No,Yes,Yes,No,Yes,1 Kennedy Road South - Shoppers Drug Mart,Brampton,https://stores.shoppersdrugmart.ca/en/store/1058/,905-454-4464,L6W 3C9,1 Kennedy Road South,ON,07:00-00:00,07:00-00:00,07:00-00:00,07:00-00:00,07:00-00:00,43.6945685,-79.749197
Yes,No,No,Yes,Yes,3938 Cottrelle Boulevard - Shoppers Drug Mart,Brampton,https://stores.shoppersdrugmart.ca/en/store/1326/,905-794-7071,L6P 2R1,3938 Cottrelle Boulevard,ON,09:00-22:00,09:00-22:00,09:00-22:00,09:00-22:00,09:00-22:00,43.7847274,-79.662227
No,No,Yes,No,No,1180 Walkley Road - Shoppers Drug Mart,Ottawa,https://stores.shoppersdrugmart.ca/en/store/620/,613-737-3344,K1V 2M5,1180 Walkley Road,ON,08:00-22:00,08:00-22:00,08:00-22:00,08:00-22:00,08:00-22:00,45.3697843,-75.663646
No,No,Yes,No,Yes,647 Earl Armstrong Road - Shoppers Drug Mart,Ottawa,https://stores.shoppersdrugmart.ca/en/store/1161/,613-822-6746,K1V 2G2,647 Earl Armstrong Road,ON,08:00-22:00,08:00-22:00,08:00-22:00,08:00-22:00,08:00-22:00,45.2693834,-75.698127
No,No,No,No,Yes,455 Bank Street - Shoppers Drug Mart,Ottawa,https://stores.shoppersdrugmart.ca/en/store/1428/,613-238-9041,K2P 1Y9,455 Bank Street,ON,09:00-22:00,09:00-22:00,09:00-22:00,09:00-22:00,09:00-22:00,45.4119191,-75.693158
No,Yes,Yes,Yes,No,541 Montreal Road - Shoppers Drug Mart,Ottawa,https://stores.shoppersdrugmart.ca/en/store/641/,613-740-0616,K1K 0V1,541 Montreal Road,ON,08:00-22:00,08:00-22:00,08:00-22:00,08:00-22:00,08:00-22:00,45.4418209,-75.646244
No,No,No,Yes,Yes,3940 Innes Road - Shoppers Drug Mart,Orleans,https://stores.shoppersdrugmart.ca/en/store/1139/,613-834-7383,K1W 1K9,3940 Innes Road,ON,08:00-22:00,08:00-22:00,08:00-22:00,08:00-22:00,08:00-22:00,45.4539866,-75.507985
No,No,No,Yes,No,2954 St. Joseph Boulevard - Shoppers Drug Mart,Orleans,https://stores.shoppersdrugmart.ca/en/store/1230/,613-841-1535,K1C 1G7,2954 St. Joseph Boulevard,ON,08:00-22:00,08:00-22:00,08:00-22:00,08:00-22:00,08:00-22:00,45.4750981,-75.516484
No,Yes,No,No,Yes,1630 Danforth Avenue - Shoppers Drug Mart,Toronto,https://stores.shoppersdrugmart.ca/en/store/500/,416-461-2453,M4C 1H6,1630 Danforth Ave,ON,08:00-00:00,08:00-00:00,08:00-00:00,08:00-00:00,08:00-00:00,43.683901,-79.32219
No,No,Yes,Yes,No,1601 Bayview Avenue - Shoppers Drug Mart,East York,https://stores.shoppersdrugmart.ca/en/store/982/,416-489-1873,M4G 3B5,1601 Bayview Ave,ON,08:00-22:00,08:00-22:00,08:00-22:00,08:00-22:00,08:00-22:00,43.7063311,-79.375022
Yes,No,No,No,Yes,1027 Yonge Street - Shoppers Drug Mart,Toronto,https://stores.shoppersdrugmart.ca/en/store/926/,416-961-0155,"M4W 2K9 ",1027 Yonge Street,ON,08:00-22:00,08:00-22:00,08:00-22:00,08:00-22:00,08:00-22:00,43.6776412,-79.389454
Yes,Yes,No,Yes,Yes,3446 Dundas Street West - Shoppers Drug Mart,Toronto,https://stores.shoppersdrugmart.ca/en/store/1166/,416-766-8131,M6S 2S1,3446 Dundas Street West,ON,08:00-00:00,08:00-00:00,08:00-00:00,08:00-00:00,08:00-00:00,43.6661678,-79.486735
No,No,No,Yes,Yes,1400 Dupont Street - Shoppers Drug Mart,Toronto,https://stores.shoppersdrugmart.ca/en/store/1304/,416-532-9214,"M6H 2B2 ",1400 Dupont Street,ON,08:00-22:00,08:00-22:00,08:00-22:00,08:00-22:00,08:00-22:00,43.6668998,-79.446711
Yes,Yes,No,No,No,360A Bloor Street West - Shoppers Drug Mart,Toronto,https://stores.shoppersdrugmart.ca/en/store/806/,416-961-2121,M5S 1X1,360A Bloor Street West,ON,08:00-00:00,08:00-00:00,08:00-00:00,08:00-00:00,08:00-00:00,43.6665441,-79.405057
Yes,Yes,No,No,Yes,123 Rexdale Boulevard - Shoppers Drug Mart,Etobicoke,https://stores.shoppersdrugmart.ca/en/store/857/,"416-743-1645  ",M9W 1P1,123 Rexdale Boulevard,ON,08:00-00:00,08:00-00:00,08:00-00:00,08:00-00:00,08:00-00:00,43.7110841,-79.565436
No,Yes,Yes,Yes,Yes,900 Albion Road - Shoppers Drug Mart,Etobicoke,https://stores.shoppersdrugmart.ca/en/store/954/,416-741-2430,M9V 1A5,900 Albion Road,ON,08:00-22:00,08:00-22:00,08:00-22:00,08:00-22:00,08:00-22:00,43.7353212,-79.559993
Yes,Yes,Yes,No,No,6975 Meadowvale Town Centre Circle -Shoppers Drug Mart,Mississauga,https://stores.shoppersdrugmart.ca/en/store/779/,905-826-7112,L5N 2W7,6975 Meadowvale Town Centre Circle,ON,08:00-00:00,08:00-00:00,08:00-00:00,08:00-00:00,08:00-00:00,43.5819795,-79.758122
Yes,Yes,Yes,Yes,Yes,5602 Tenth Line West #101 - Shoppers Drug Mart,Mississauga,https://stores.shoppersdrugmart.ca/en/store/1147/,905-858-4618,L5M 5S5,5602 Tenth Line West #101,ON,08:00-22:00,08:00-22:00,08:00-22:00,08:00-22:00,08:00-22:00,43.5591152,-79.744719
No,Yes,Yes,Yes,No,5425 Creditview Road #1 - Shoppers Drug Mart,Mississauga,https://stores.shoppersdrugmart.ca/en/store/791/,905-858-8711,L5V 2P3,5425 Creditview Road #1,ON,09:00-22:00,09:00-22:00,09:00-22:00,09:00-22:00,09:00-22:00,43.5871633,-79.695706
No,No,Yes,No,No,7070 Mclaughlin Road - Shoppers Drug Mart,Mississauga,https://stores.shoppersdrugmart.ca/en/store/902/,905-696-9791,L5W 1W7,7070 Mclaughlin Road,ON,08:00-22:00,08:00-22:00,08:00-22:00,08:00-22:00,08:00-22:00,43.6367569,-79.71948
Yes,Yes,Yes,Yes,No,4841 Yonge Street - Shoppers Drug Mart,North York,https://stores.shoppersdrugmart.ca/en/store/986/,416-222-1174,"M2N 5X2 ",4841 Yonge Street,ON,08:00-22:00,08:00-22:00,08:00-22:00,08:00-22:00,08:00-22:00,43.7625088,-79.410532
Yes,Yes,Yes,No,Yes,5095 Yonge Street - Shoppers Drug Mart,Toronto,https://stores.shoppersdrugmart.ca/en/store/1250/,416-226-0313,M2N 6Z4,5095 Yonge Street,ON,07:00-22:00,07:00-22:00,07:00-22:00,07:00-22:00,07:00-22:00,43.768663,-79.412087
Yes,No,No,No,Yes,3874 Bathurst Street - Shoppers Drug Mart,North York,https://stores.shoppersdrugmart.ca/en/store/838/,416-635-5601,M3H 3N3,3874 Bathurst Street,ON,08:00-20:00,08:00-20:00,08:00-20:00,08:00-20:00,08:00-20:00,43.7411737,-79.435313
No,Yes,No,No,No," 2550 Finch Ave West - Shoppers Drug Mart",North York,https://stores.shoppersdrugmart.ca/en/store/854/,416-749-5271,M9M 2G3," 2550 Finch Avenue West",ON,09:00-22:00,09:00-22:00,09:00-22:00,09:00-22:00,09:00-22:00,43.7490689,-79.560255
Yes,Yes,No,Yes,Yes,1937 Portobello Boulevard - Shoppers Drug Mart,Orleans,https://stores.shoppersdrugmart.ca/en/store/1254/,613-590-1626,K4A 4W9,1937 Portobello Boulevard,ON,08:00-00:00,08:00-00:00,08:00-00:00,08:00-00:00,08:00-00:00,45.4680525,-75.465799
Yes,Yes,No,No,Yes,2751 Eglinton Ave East - Shoppers Drug Mart,Scarborough,https://stores.shoppersdrugmart.ca/en/store/859/,416-267-8211,"M1J 2C7 ",2751 Eglinton Ave East,ON,08:00-22:00,08:00-22:00,08:00-22:00,08:00-22:00,08:00-22:00,43.7363941,-79.247494
No,No,Yes,Yes,Yes,629 Markham Road - Shoppers Drug Mart,Scarborough,https://stores.shoppersdrugmart.ca/en/store/800/,416-439-2121,"M1H 2A4  ",629 Markham Road,ON,09:00-22:00,09:00-22:00,09:00-22:00,09:00-22:00,09:00-22:00,43.7609483,-79.224056
Yes,No,Yes,Yes,Yes,2301 Kingston Road - Shoppers Drug Mart,Scarborough,https://stores.shoppersdrugmart.ca/en/store/1382/,416-269-2171,M1N 1V1,2301 Kingston Road,ON,08:00-22:00,08:00-22:00,08:00-22:00,08:00-22:00,08:00-22:00,43.7067404,-79.250137
Yes,Yes,No,No,Yes,1780 Markham Road - Shoppers Drug Mart,Scarborough,https://stores.shoppersdrugmart.ca/en/store/1381/,416-412-1780,M1B 2W2,1780 Markham Road,ON,09:00-22:00,09:00-22:00,09:00-22:00,09:00-22:00,09:00-22:00,43.7948226,-79.240533
Yes,No,No,Yes,Yes,579 Lakeshore Road East - Shoppers Drug Mart,Mississauga,https://stores.shoppersdrugmart.ca/en/store/1275/,905-278-5506,L5G 1H9,579 Lakeshore Road East,ON,08:00-22:00,08:00-22:00,08:00-22:00,08:00-22:00,08:00-22:00,43.5687599,-79.569212
Yes,Yes,No,No,No,3980 Grand Park Drive - Shoppers Drug Mart,Mississauga,https://stores.shoppersdrugmart.ca/en/store/908/,905-566-9600,"L5B 4M6 ",3980 Grand Park Drive,ON,08:00-22:00,08:00-22:00,08:00-22:00,08:00-22:00,08:00-22:00,43.5809762,-79.64907
Yes,Yes,Yes,Yes,Yes,2470 Hurontario Street - Shoppers Drug Mart,Mississauga,https://stores.shoppersdrugmart.ca/en/store/776/,905-896-2500,L5B 0H2,2470 Hurontario Street,ON,00:00-00:00,00:00-00:00,00:00-00:00,00:00-00:00,00:00-00:00,43.5770629,-79.612748
Yes,Yes,Yes,Yes,Yes,700 Burnhamthorpe Road East - Shoppers Drug Mart,Mississauga,https://stores.shoppersdrugmart.ca/en/store/774/,905-279-1812,L4Y 2X3,700 Burnhamthorpe Road East,ON,08:00-00:00,08:00-00:00,08:00-00:00,08:00-00:00,08:00-00:00,43.607815,-79.617662
No,No,Yes,Yes,No,2148 Carling Avenue. Unit #1 - Shoppers Drug Mart,Ottawa,https://stores.shoppersdrugmart.ca/en/store/622/,613-725-9990,K2A 1H1,"2148 Carling Avenue, Unit 1",ON,09:00-22:00,09:00-22:00,09:00-22:00,09:00-22:00,09:00-22:00,45.3694167,-75.768771
Yes,Yes,No,Yes,Yes,1309 Carling Avenue - Shoppers Drug Mart,Ottawa,https://stores.shoppersdrugmart.ca/en/store/628/,613-722-4277,K1Z 7L3,1309 Carling Avenue,ON,00:00-00:00,00:00-00:00,00:00-00:00,00:00-00:00,00:00-00:00,45.3867692,-75.735523
Yes,No,Yes,Yes,Yes,1102 Klondike Road - Shoppers Drug Mart,Kanata,https://stores.shoppersdrugmart.ca/en/store/1324/,613-592-6010,K2K 1X7,1102 Klondike Road,ON,08:00-22:00,08:00-22:00,08:00-22:00,08:00-22:00,08:00-22:00,45.3545129,-75.932693
Yes,No,Yes,Yes,Yes,51 King William Street - Shoppers Drug Mart,Huntsville,https://stores.shoppersdrugmart.ca/en/store/647/,705-789-4471,P1H 1G4,51 King William Street,ON,08:00-22:00,08:00-22:00,08:00-22:00,08:00-22:00,08:00-22:00,45.3321536,-79.207277
Yes,No,Yes,No,Yes,11965 Hurontario Street - Shoppers Drug Mart,Brampton,https://stores.shoppersdrugmart.ca/en/store/1177/?utm_source=G&utm_medium=lpm&utm_campaign=LPM_SDM,905-495-0311,L6Z 4P7,11965 Hurontario Street,ON,08:00-22:00,08:00-22:00,08:00-22:00,08:00-22:00,08:00-22:00,43.7338349,-79.823181
Yes,Yes,No,No,Yes,Junction Chemist Pharmacy,Toronto,https://www.junctionchemist.com/,647-748-3784,M6P 1T7,17 St Johns Road,ON,09:00-19:00,09:00-19:00,09:00-19:00,10:00-18:00,10:00-18:00,43.6652578,-79.473926
No,No,No,Yes,No,Extra Mile Pharmacy,Mississauga,https://extra-mile-pharmacy-medical-centre.business.site/,905-785-7888,L5N 7C7,#6-2980 Crosscurrent Drive,ON,10:00-19:00,10:00-19:00,10:00-19:00,10:00-19:00,10:00-19:00,43.5946885,-79.779096
No,Yes,No,Yes,No,Whole Health Pharmacy (Cooksville),Mississauga,https://wholehealthcooksville.ca/,905-275-2273,L5B 1J2,"250 Dundas Street West, Unit 106",ON,09:00-20:00,09:00-20:00,09:00-20:00,09:00-20:00,09:00-18:00,43.5748347,-79.622093
Yes,No,No,Yes,Yes,Liberty Market Pharmacy,Toronto,http://www.libertymarketpharmacy.com/,416-984-4147,M6K 3P6,"171 East Liberty Street, Unit 102",ON,08:30-20:00,08:30-20:00,08:30-20:00,08:30-20:00,08:30-19:00,43.638221,-79.417591
No,Yes,Yes,Yes,Yes,Hybrid Pharm,Ottawa,https://hybridpharm.com/,613-695-4923,K1Z 6X6,318 Richmond Road,ON,09:00-18:00,09:00-18:00,09:00-18:00,09:00-18:00,09:00-18:00,45.3923594,-75.752901
Yes,Yes,Yes,No,No,Cedarview Pharmacy,Nepean,http://myownpharmacy.ca/guardian/,613-823-1700,K2J 0V2,12 - 4100 Strandherd Drive,ON,08:30-20:00,08:30-20:00,08:30-20:00,08:30-20:00,08:30-18:00,45.260328,-75.768205
Yes,No,No,Yes,Yes,2600 Eglinton Ave West - Medicine Shoppe,Toronto,https://www.medicineshoppe.ca/en/ontario/toronto/the-medicine-shoppe-pharmacy-134-7014226?utm_source=Google&utm_medium=maps&utm_campaign=Local_Presence,416-651-6511,M6M 1T5,2600 Eglinton Ave West,ON,09:00-18:00,09:00-18:00,09:00-18:00,09:00-18:00,09:00-18:00,43.6908715,-79.472981
No,Yes,No,No,No,5303 Canotek Road #19 - Medicine Shoppe,Ottawa,https://www.medicineshoppe.ca/en/ontario/ottawa/the-medicine-shoppe-pharmacy-143-7009763,613-745-5905,K1J 9M1,"5303 Canotek Road, Unit 19",ON,09:00-17:00,09:00-17:00,09:00-17:00,09:00-17:00,09:00-17:00,45.4529502,-75.588505
Yes,No,Yes,No,Yes,Village Square Pharmacy,Mississauga,www.villagesquaremedical.ca,905-567-1500,L5M 1X3,10 Main Street,ON,10:00-19:00,10:00-19:00,10:00-19:00,10:00-19:00,10:00-19:00,43.581581,-79.712722
No,Yes,Yes,No,No,1615 Orleans Boulevard -  Rexall,Orleans,https://www.rexall.ca/storelocator/store/95,,K1C 7E2,1615 Orleans Boulevard,ON,09:00-21:00,09:00-21:00,09:00-21:00,09:00-21:00,09:00-21:00,45.4604249,-75.524721
Yes,No,No,Yes,No,4459 Kingston Road - Rexall,Scarborough,https://www.rexall.ca/storelocator/store/109,,M1E 2N7,4459 Kingston Road,ON,08:00-21:00,08:00-21:00,08:00-21:00,08:00-21:00,08:00-21:00,43.7686389,-79.187367
Yes,Yes,No,No,No,250 Wincott Drive - Rexall,Weston,https://www.rexall.ca/storelocator/store/0869/,,M9R 2R5,250 Wincott Drive,ON,08:00-22:00,08:00-22:00,08:00-22:00,08:00-22:00,08:00-22:00,43.67961,-79.546611
Yes,Yes,No,No,No,545 Steeles Avenue West - Rexall,Brampton,https://www.rexall.ca/storelocator/store/980,,L6Y 4E7,"545 Steeles Avenue West, Unit A01",ON,08:00-21:00,08:00-21:00,08:00-21:00,08:00-21:00,08:00-21:00,43.6547754,-79.743931
No,No,Yes,Yes,No,901 Eglinton Avenue West  - Rexall,Toronto,https://www.rexall.ca/storelocator/store/3012/,,M6C 2C1,901 Eglinton Avenue West,ON,08:00-00:00,08:00-00:00,08:00-00:00,08:00-00:00,08:00-00:00,43.7004107,-79.427075
No,No,No,No,Yes,90 Copper Creek Drive - Rexall,Markham,https://www.rexall.ca/storelocator/store/6933,,L6B 0P2,90 Copper Creek Drive,ON,08:00-21:00,08:00-21:00,08:00-21:00,08:00-21:00,08:00-21:00,43.8671934,-79.228814
No,Yes,Yes,Yes,Yes,286 Bunting RoadÂ - Shoppers Drug Mart,St. Catharines,https://stores.shoppersdrugmart.ca/en/store/792/,905-688-6733,L2M 7S5,"286 Bunting Road, Unit 22",ON,08:00-22:00,08:00-22:00,08:00-22:00,08:00-22:00,08:00-22:00,43.178693,-79.209683
Yes,No,Yes,No,No,5175 Victoria AveÂ - Shoppers Drug Mart,Niagara Falls,https://stores.shoppersdrugmart.ca/en/store/1411/,905-356-5096,L2E 4E4,"5175 Victoria Avenue, Unit 1",ON,08:00-22:00,08:00-22:00,08:00-22:00,08:00-22:00,08:00-22:00,43.099437,-79.074375
Yes,No,No,No,Yes,395 Southdale RoadÂ East - Shoppers Drug Mart,London,https://stores.shoppersdrugmart.ca/en/store/1072/,519-685-1160,N6E 1A2,395 Southdale RoadÂ East,ON,08:00-22:00,08:00-22:00,08:00-22:00,08:00-22:00,08:00-22:00,42.941387,-81.2440769
Yes,No,No,No,No,3090 Colonel Talbot RoadÂ - Shoppers Drug Mart,London,https://stores.shoppersdrugmart.ca/en/store/1401/,519-652-9083,N6P 0B3,3090 Colonel Talbot Road,ON,08:00-22:00,08:00-22:00,08:00-22:00,08:00-22:00,08:00-22:00,42.934354,-81.3165789
Yes,Yes,No,No,No,603 FanshaweÂ Park RoadÂ - Shoppers Drug Mart,London,https://stores.shoppersdrugmart.ca/en/store/1328/,519-657-9973,N6G 5B3,603 Fanshawe Park Road West,ON,08:00-22:00,08:00-22:00,08:00-22:00,08:00-22:00,08:00-22:00,43.019914,-81.310375
Yes,No,Yes,Yes,Yes,235 Ira Needles Boulevard - Shoppers Drug Mart,Kitchener,https://stores.shoppersdrugmart.ca/en/store/1438/,519-744-4001,N2N 0B2,235 Ira Needles Boulevard,ON,08:00-22:00,08:00-22:00,08:00-22:00,08:00-22:00,08:00-22:00,43.424352,-80.5533021
Yes,No,Yes,No,Yes,550 King St. NorthÂ - Shoppers Drug Mart,Waterloo,https://stores.shoppersdrugmart.ca/en/store/728/,519-886-6130,N2L 5W6,"550 King Street North, Major 4A",ON,08:00-20:00,08:00-20:00,08:00-20:00,08:00-20:00,08:00-20:00,43.497637,-80.5252549
Yes,No,No,Yes,Yes,3100 Howard Ave.Â - Shoppers Drug Mart,Windsor,https://stores.shoppersdrugmart.ca/en/store/760/,519-969-4523,N8X 3Y8,3100 Howard Avenue,ON,09:00-20:00,09:00-20:00,08:00-20:00,08:00-20:00,08:00-20:00,42.273219,-83.0019906
No,No,Yes,Yes,No,7720 Tecumseh RoadÂ East - Shoppers Drug Mart,Windsor,https://stores.shoppersdrugmart.ca/en/store/761/,519-945-2371,N8T 1E9,7720 Tecumseh Road East,ON,09:00-20:00,09:00-20:00,09:00-20:00,09:00-20:00,09:00-20:00,42.314861,-82.9348395
No,No,Yes,No,Yes,1760 Huron Church RoadÂ - Shoppers Drug Mart,Windsor,https://stores.shoppersdrugmart.ca/en/store/1467/,519-253-5653,N9C 2L4,1760 Huron Church Road,ON,08:00-22:00,08:00-22:00,08:00-22:00,08:00-22:00,08:00-22:00,42.284426,-83.0556402
No,No,No,No,Yes,1500 King St East - Shoppers Drug Mart,Cambridge,https://stores.shoppersdrugmart.ca/en/store/979/,519-653-9700,N3H 3R5,1500 King Street East,ON,08:00-22:00,08:00-22:00,08:00-22:00,08:00-22:00,08:00-22:00,43.389663,-80.3465977
No,No,No,No,Yes,416 St. Clair St.Â - Shoppers Drug Mart,Chatham,https://stores.shoppersdrugmart.ca/en/store/713/,519-352-3200,N7L 3K5,"416 St. Clair Street ",ON,08:00-00:00,08:00-00:00,08:00-00:00,08:00-00:00,08:00-00:00,42.415016,-82.2015738
No,Yes,Yes,No,Yes,2600 Lakeshore RoadÂ - Shoppers Drug Mart,Sarnia,https://stores.shoppersdrugmart.ca/en/store/718/,519-869-4224,N0N 1C0,2600 Lakeshore Road,ON,08:00-22:00,08:00-22:00,08:00-22:00,08:00-22:00,08:00-22:00,43.028211,-82.2557008
No,No,Yes,Yes,No,1206 Michigan Ave. - Shoppers Drug Mart,Sarnia,https://stores.shoppersdrugmart.ca/en/store/1437/,519-541-9064,N7S 6M7,1206 Michigan Avenue,ON,08:00-22:00,08:00-22:00,08:00-22:00,08:00-22:00,08:00-22:00,43.000351,-82.3645663
Yes,Yes,No,No,No,107Â Edward St.Â - Shoppers Drug Mart,St. Thomas,https://stores.shoppersdrugmart.ca/en/store/738/,519-633-4402,N5P 1Y8,107 Edward Street,ON,08:00-22:00,08:00-22:00,08:00-22:00,08:00-22:00,08:00-22:00,42.785215,-81.175989
No,No,No,No,No,320 Colborne St. WestÂ - Shoppers Drug Mart,Brantford,https://stores.shoppersdrugmart.ca/en/store/1152/,519-759-8133,N3T 1M2,320 Colborne Street West,ON,08:00-00:00,08:00-00:00,08:00-00:00,08:00-00:00,08:00-00:00,43.129665,-80.2867931
No,No,Yes,No,Yes,511 Huron St.Â - Shoppers Drug Mart,Stratford,https://stores.shoppersdrugmart.ca/en/store/1444/,519-271-9195,N5A 5T8,511 Huron Street,ON,08:00-22:00,08:00-22:00,08:00-22:00,08:00-22:00,08:00-22:00,43.379241,-81.0023119
Yes,Yes,No,Yes,Yes,333 DundasÂ St. - Shoppers Drug Mart,Woodstock,https://stores.shoppersdrugmart.ca/en/store/1171/,519-537-3491,N4S 1B5,333 Dundas Street,ON,08:00-22:00,08:00-22:00,08:00-22:00,08:00-22:00,08:00-22:00,43.129747,-80.7626478
Yes,Yes,Yes,No,No,Glen Cade Pharmacy,Etobicoke,https://glencadepharmacy.ca/,416-622-2111,M9C 1C6,290 The West Mall,ON,09:00-20:00,09:00-20:00,09:00-20:00,09:00-20:00,09:00-20:00,43.63484,-79.5627
No,Yes,Yes,Yes,No,Vanier Pharmacy,Ottawa,http://www.vanierpharmacy.ca,613-746-8102,K1L 8H3,"355 Montreal Road, Unit 101",ON,09:00-18:00,09:00-18:00,09:00-20:00,09:00-18:00,09:00-18:00,45.438437,-75.655478
No,Yes,Yes,Yes,No,784 Taunton Road EastÂ  - Shoppers Drug Mart,Oshawa,https://stores.shoppersdrugmart.ca/en/store/1249/,905-435-0305,L1K 1B7,784 Taunton Road East,ON,08:00-22:00,08:00-22:00,08:00-22:00,08:00-22:00,08:00-22:00,43.939923,-78.851447
No,Yes,No,No,Yes,95 Williamson Drive WestÂ - Shoppers Drug Mart,Ajax,https://stores.shoppersdrugmart.ca/en/store/1413/,905-428-3572,L1T 0K9,95 Williamson Drive West,ON,08:00-22:00,08:00-22:00,08:00-22:00,08:00-22:00,08:00-22:00,43.884544,-79.045997
No,Yes,No,No,No,910 Dundas St. WestÂ  - Shoppers Drug Mart,Whitby,https://stores.shoppersdrugmart.ca/en/store/675/,905-430-7550,L1P 1P7,910 Dundas Street West,ON,08:00-22:00,08:00-22:00,08:00-22:00,08:00-22:00,08:00-22:00,43.876503,-78.962747
Yes,Yes,No,Yes,No,775 Strand Boulevard. - Shoppers Drug Mart,Kingston,https://stores.shoppersdrugmart.ca/en/store/1144/,613-384-7477,K7P 2S7,775 Strand Boulevard,ON,08:00-00:00,08:00-00:00,08:00-00:00,08:00-00:00,08:00-00:00,44.251776,-76.5932
Yes,Yes,Yes,No,Yes,1201 Division St. - Shoppers Drug Mart,Kingston,https://stores.shoppersdrugmart.ca/en/store/604/,613-546-3544,K7K 6X4,1201 Division Street,ON,08:00-00:00,08:00-00:00,08:00-00:00,08:00-00:00,08:00-00:00,44.265649,-76.4966
Yes,Yes,No,No,Yes,150 Sidney St. - Shoppers Drug Mart,Belleville,https://stores.shoppersdrugmart.ca/en/store/987/,613-962-3406,K8P 5E2,150 Sidney Street,ON,08:00-22:00,08:00-22:00,08:00-22:00,08:00-22:00,08:00-22:00,44.158991,-77.398424
Yes,Yes,No,Yes,No,741 Lansdowne St. WestÂ - Shoppers Drug Mart,Peterborough,https://stores.shoppersdrugmart.ca/en/store/614/,705-748-6141,K9J 1Z2,741 Lansdowne Street West,ON,08:00-00:00,08:00-00:00,08:00-00:00,08:00-00:00,08:00-00:00,44.284028,-78.334799
Yes,No,Yes,No,No,8965 Chinguacousy Road - Shoppers Drug Mart,Brampton,https://stores.shoppersdrugmart.ca/en/store/1092/,905-454-1620,L6Y 0J2,8965 Chinguacousy Road,ON,08:00-00:00,08:00-00:00,08:00-00:00,08:00-00:00,08:00-00:00,43.665987,-79.779806
Yes,Yes,No,No,Yes,Humber River Hospital - Church Street,North York,https://www.hrh.ca/covid-19/,416-243-4333,M9N 1N8,"200 Church Street ",ON,10:00-18:00,10:00-18:00,10:00-18:00,10:00-18:00,10:00-18:00,43.709845,-79.510333
No,Yes,Yes,Yes,No,10970 Airport Road - Shoppers Drug Mart,Brampton,https://stores.shoppersdrugmart.ca/en/store/1369/,905-793-0308,L6R 0E1,10970 Airport Road,ON,08:00-00:00,08:00-00:00,08:00-00:00,08:00-00:00,08:00-00:00,43.781747,-79.749869
Yes,Yes,No,No,Yes,Thorncliffe Park Temporary Testing Site,Toronto,https://ethp.ca/main/covid19-testing,647-477-1640,M4H 1C3,"45 Overlea Boulevard, Unit 108A",ON,13:00-19:00,13:00-19:00,13:00-19:00,13:00-19:00,13:00-19:00,43.705989,-79.346028
Yes,Yes,No,Yes,No,5033 Hurontario St. - Shoppers Drug Mart,Mississauga,https://stores.shoppersdrugmart.ca/en/store/1100/,905-890-1313,L4Z 3X7,5033 Hurontario Street,ON,08:00-00:00,08:00-00:00,08:00-00:00,08:00-00:00,08:00-00:00,43.608005,-79.652364
Yes,Yes,Yes,No,No,Downtown Oshawa COVID-19 Assessment Centre,Oshawa,https://www.lakeridgehealth.on.ca/en/patientsandvisitors/novel-coronavirus-2019-ncov.asp,,L1G 7W8,1 Mary Street North,ON,10:00-18:00,10:00-18:00,10:00-18:00,10:00-18:00,10:00-18:00,43.899,-78.860461
Yes,No,Yes,No,No,2206 Lake Shore Boulevard.Â - Shoppers Drug Mart,Etobicoke,https://stores.shoppersdrugmart.ca/en/store/1421/,416-259-1330,M8V 1A4,2206 Lake Shore Boulevard West,ON,08:00-22:00,08:00-22:00,08:00-22:00,08:00-22:00,08:00-22:00,43.622862,-79.481943
Yes,Yes,No,No,Yes,Norfolk General Hospital Assessment Centre,Simcoe,http://www.ngh.on.ca,519-426-0130 ext. 2234,N3Y 1T7,365 West Street,ON,08:00-16:00,08:00-16:00,08:00-16:00,,08:00-16:00,42.835299,-80.314353
Yes,No,Yes,Yes,Yes,8601 Warden Ave. - Shoppers Drug Mart,Markham,https://stores.shoppersdrugmart.ca/en/store/920/,905-479-0772,L3R 0B5,8601 Warden Avenue,ON,08:00-00:00,08:00-00:00,08:00-00:00,08:00-00:00,08:00-00:00,43.857558,-79.331709
No,No,Yes,Yes,No,North Grenville COVID-19 Assessment Centre,Kemptville,,,K0G 1J0,15 Campus Drive,ON,09:00-17:00,09:00-17:00,09:00-17:00,09:00-17:00,09:00-17:00,45.007208,-75.638478
Yes,Yes,No,No,No,5100 Rutherford RoadÂ - Shoppers Drug Mart,Woodbridge,https://stores.shoppersdrugmart.ca/en/store/700/,905-893-2866,L4H 2J2,5100 Rutherford Road,ON,08:00-00:00,08:00-00:00,08:00-00:00,08:00-00:00,08:00-00:00,43.817324,-79.602129
No,No,No,Yes,Yes,Scarborough Health Network - General Hospital,Scarborough,https://www.shn.ca/covid19-assess/,416-495-2601,M1P 2V5,3050 Lawrence Avenue East,ON,08:00-18:00,08:00-18:00,08:00-18:00,08:00-18:00,08:00-18:00,43.756857,-79.246924
Yes,Yes,No,Yes,Yes,8000 Bathurst St.Â - Shoppers Drug Mart,Thornhill,https://stores.shoppersdrugmart.ca/en/store/965/,905-882-0201,L4J 0B8,8000 Bathurst Street,ON,08:00-00:00,08:00-00:00,08:00-00:00,08:00-00:00,08:00-00:00,43.816045,-79.451932
Yes,Yes,No,No,Yes,The Wellington Assessment Centre - Harriston,Harriston,http://www.whcacovid.com,519-843-8160,N0G 1Z0,"83 Arthur Street West ",ON,,09:00-12:30 & 13:30-17:00,,09:00-12:30 & 13:30-17:00,,43.910751,-80.87346
Yes,Yes,No,Yes,No,2920 Major Mackenzie Drive - Shoppers Drug Mart,Markham,https://stores.shoppersdrugmart.ca/en/store/1385/,905-927-7161,L6C 0G6,2920 Major MacKenzie Drive East,ON,09:00-00:00,09:00-00:00,09:00-00:00,09:00-00:00,09:00-00:00,43.885871,-79.370284
No,Yes,No,Yes,Yes,Rapids Family Health Team COVID-19 Assessment Centre,Sarnia,https://testing.getcorigan.ca/,519-491-5395,N7S 3A7,1150 Pontiac Drive,ON,12:00-20:00,12:00-20:00,12:00-20:00,12:00-20:00,12:00-20:00,42.981034,-82.360976
Yes,Yes,No,No,Yes,831 Big Bay Point RoadÂ - Shoppers Drug Mart,Barrie,https://stores.shoppersdrugmart.ca/en/store/1231/,705-726-5343,L4N 0G5,831 Big Bay Point Road,ON,08:00-22:00,08:00-22:00,08:00-22:00,08:00-22:00,08:00-22:00,44.363675,-79.615731
Yes,No,No,No,No,St. Josephâ€™s Healthcare Hamiltonâ€™s Mountain COVID-19 Testing Centre,Hamilton,http://www.HamiltonCovidTest.ca,905-974-9848,L9C 0E5,135 Fennell Avenue West,ON,09:00-17:00,09:00-17:00,09:00-17:00,09:00-17:00,09:00-17:00,43.238522,-79.887703
Yes,No,Yes,Yes,Yes,7 ClairÂ Road WestÂ - Shoppers Drug Mart,Guelph,https://stores.shoppersdrugmart.ca/en/store/1213/,519-763-3431,N1L 0A6,7 Clair Road West,ON,08:00-00:00,08:00-00:00,08:00-00:00,08:00-00:00,08:00-00:00,43.500872,-80.190589
No,Yes,Yes,No,No,511 Muskoka Road SouthÂ - Shoppers Drug Mart,Gravenhurst,https://stores.shoppersdrugmart.ca/en/store/1345/,705-687-2838,P1P 1J8,511 Muskoka Road South,ON,09:00-22:00,09:00-22:00,09:00-22:00,09:00-22:00,09:00-22:00,44.916003,-79.372853
Yes,No,Yes,No,No,1090 King St. West - Shoppers Drug Mart,Toronto,https://stores.shoppersdrugmart.ca/en/store/1005/,416-977-4101," M6K 0C7",1090 King St. West,ON,08:00-22:00,08:00-22:00,08:00-22:00,08:00-22:00,08:00-22:00,43.64017,-79.422434
No,No,No,No,Yes,390 Queen's Quay WestÂ - Shoppers Drug Mart,Toronto,https://stores.shoppersdrugmart.ca/en/store/1321/,416-260-2766," M5V 3A6","390 Queen's Quay West, Unit 110",ON,08:00-00:00,08:00-00:00,08:00-00:00,08:00-00:00,08:00-00:00,43.638124,-79.390814
Yes,Yes,No,No,Yes,388 King St. WestÂ - Shoppers Drug Mart,Toronto,https://stores.shoppersdrugmart.ca/en/store/1320/,416-597-6550," M5V 1K2",388 King Street West,ON,08:00-00:00,08:00-00:00,08:00-00:00,08:00-00:00,08:00-00:00,43.646155,-79.392523
Yes,No,No,No,No,279 Yonge St.Â - Shoppers Drug Mart,Toronto,https://stores.shoppersdrugmart.ca/en/store/1402/,416-591-1733,M5B 1N8,279 Yonge Street,ON,08:00-22:00,08:00-22:00,08:00-22:00,08:00-22:00,08:00-22:00,43.655654,-79.380294
Yes,Yes,Yes,Yes,No,951 Bay St.Â - Shoppers Drug Mart,Toronto,https://stores.shoppersdrugmart.ca/en/store/1149/,416-925-0881,M5S 0E1,"951 Bay Street, Unit G41",ON,08:00-22:00,08:00-22:00,08:00-22:00,08:00-22:00,08:00-22:00,43.66471,-79.386957
No,No,No,Yes,No,970 Queen St. East - Shoppers Drug Mart,Toronto,https://stores.shoppersdrugmart.ca/en/store/823/,416-462-0062,M4M 1J8,970 Queen Street East,ON,08:00-00:00,08:00-00:00,08:00-00:00,08:00-00:00,08:00-00:00,43.661197,-79.340348
No,No,No,Yes,No,593 Dundas St. EastÂ - Shoppers Drug Mart,Toronto,https://stores.shoppersdrugmart.ca/en/store/1489/,416-214-9440,M5A 3H6,"593 Dundas Street East, South Tower",ON,08:00-22:00,08:00-22:00,08:00-22:00,08:00-22:00,08:00-22:00,43.660233,-79.361351
Yes,Yes,Yes,Yes,No,2345 Yonge St. - Shoppers Drug Mart,Toronto,https://stores.shoppersdrugmart.ca/en/store/841/,416-487-5411,M4P 1E4,2345 Yonge Street,ON,00:00-00:00,00:00-00:00,00:00-00:00,00:00-00:00,00:00-00:00,43.708848,-79.398383
No,No,Yes,Yes,Yes,1084 Wilson Ave. - Shoppers Drug Mart,Toronto,https://stores.shoppersdrugmart.ca/en/store/820/,416-633-9884,M3K 1G6,1084 Wilson Avenue,ON,08:00-00:00,08:00-00:00,08:00-00:00,08:00-00:00,08:00-00:00,43.728226,-79.480708
No,No,No,No,No,3975 Jane St. - Shoppers Drug Mart,North York,https://stores.shoppersdrugmart.ca/en/store/840/,416-630-2553,M3N 2K1,3975 Jane Street,ON,09:00-22:00,09:00-22:00,09:00-22:00,09:00-22:00,09:00-22:00,43.7561,-79.515802
Yes,No,No,No,No,946 Lawrence Ave. East - Shoppers Drug Mart,Toronto,https://stores.shoppersdrugmart.ca/en/store/1330/,416-444-4445,M3C 1R1,946 Lawrence Avenue East,ON,00:00-00:00,00:00-00:00,00:00-00:00,00:00-00:00,00:00-00:00,43.737262,-79.345868
No,No,Yes,Yes,No,2110 Rymal Road EastÂ - Shoppers Drug Mart,"Hamilton ",https://stores.shoppersdrugmart.ca/en/store/1233/,905-692-1214,L0R 1P0,2110 Rymal Road East,ON,08:00-22:00,08:00-22:00,08:00-22:00,08:00-22:00,08:00-22:00,43.176316,-79.791996
No,No,No,No,Yes,101 Osler DriveÂ - Shoppers Drug Mart,Dundas,https://stores.shoppersdrugmart.ca/en/store/742/,905-628-2251,L9H 4H4,"101 Osler Drive, Unit 102",ON,08:00-00:00,08:00-00:00,08:00-00:00,08:00-00:00,08:00-00:00,43.257082,-79.942283
Yes,Yes,No,No,No,269 Erie St. SouthÂ - Shoppers Drug Mart,Leamington,https://stores.shoppersdrugmart.ca/en/store/1117/,519-326-2663,N8H 3C4,269 Erie Street South,ON,08:00-00:00,08:00-00:00,08:00-00:00,08:00-00:00,08:00-00:00,42.038085,-82.601806
Yes,Yes,No,No,No,185 King George Road - Shoppers Drug Mart,Brantford,https://stores.shoppersdrugmart.ca/en/store/1158/,519-753-8411,N3R 7R9,"185 King George Road, Unit 1",ON,08:00-00:00,08:00-00:00,08:00-00:00,08:00-00:00,08:00-00:00,43.172742,-80.278776
No,Yes,No,Yes,No,50 Weber St. North - Shoppers Drug Mart,Waterloo,https://stores.shoppersdrugmart.ca/en/store/1193/,519-880-8083,N2J 3G7,50 Weber Street North,ON,08:00-00:00,08:00-00:00,08:00-00:00,08:00-00:00,08:00-00:00,43.470754,-80.512545
No,No,Yes,Yes,No,2501 Third LineÂ - Shoppers Drug Mart,Oakville,https://stores.shoppersdrugmart.ca/en/store/1271/,905-465-3000,L6M 5A9,"2501 Third Line, Building B",ON,00:00-00:00,00:00-00:00,00:00-00:00,00:00-00:00,00:00-00:00,43.449786,-79.759353
No,Yes,No,No,No,2525 Prince Michael Drive - Shoppers Drug Mart,Oakville,https://stores.shoppersdrugmart.ca/en/store/1203/,905-257-3938,L6H 0E9,2525 Prince Michael Drive,ON,08:00-00:00,08:00-00:00,08:00-00:00,08:00-00:00,08:00-00:00,43.498579,-79.707085
No,No,Yes,Yes,Yes,600 Ouellette Ave.Â - Shoppers Drug Mart,Windsor,https://stores.shoppersdrugmart.ca/en/store/1101/,519-254-2505,N9A 6Z3,600 Ouellette Avenue,ON,08:00-20:00,08:00-20:00,08:00-20:00,08:00-20:00,08:00-20:00,42.314149,-83.036402
Yes,Yes,No,No,Yes,260 Indian RoadÂ - Shoppers Drug Mart,Sarnia,https://stores.shoppersdrugmart.ca/en/store/1033/,519-337-3727,N7T 3W4,260 Indian Road,ON,08:00-00:00,08:00-00:00,08:00-00:00,08:00-00:00,08:00-00:00,42.965536,-82.37547
No,No,No,Yes,No,1155 Commissioners RoadÂ - Shoppers Drug Mart,London,https://stores.shoppersdrugmart.ca/en/store/1077/,519-649-0833,N5Z 4L9,1155 Commissioners Road East,ON,08:00-20:00,08:00-20:00,08:00-20:00,08:00-20:00,08:00-20:00,42.961714,-81.195847
Yes,Yes,Yes,No,Yes,550 Kerr St.Â - Shoppers Drug Mart,Oakville,https://stores.shoppersdrugmart.ca/en/store/744/,905-845-6674,L6K 3C7,550 Kerr Street,ON,08:00-00:00,08:00-00:00,08:00-00:00,08:00-00:00,08:00-00:00,43.446529,-79.688977
No,No,Yes,Yes,Yes,Limoge COVID-19 Testing Centre,Limoges,"https://eohu.ca/fr/covid/covid-19-testing-assessment-centres ",800-267-8260,K0A 2M0,2015 Calypso Street,ON,09:00-16:00,09:00-16:00,09:00-16:00,09:00-16:00,09:00-16:00,45.322496,-75.228366
No,Yes,No,No,No,"5650 Yonge St, Unit 17 - Rexall",North York,http://www.rexall.ca,,M2M 4G3,"5650 Yonge Street, Unit 17",ON,09:00-17:00,09:00-17:00,09:00-17:00,09:00-17:00,09:00-17:00,43.780164,-79.41619
No,Yes,No,No,No,1127 Markham Road - Rexall,Scarborough,http://www.rexall.ca,,M1H 2Y5,1127 Markham Road,ON,09:00-21:00,09:00-21:00,09:00-21:00,09:00-21:00,09:00-21:00,43.775468,-79.230478
Yes,No,Yes,No,No,1115 Wilson Avenue - Rexall,Toronto,http://www.rexall.ca,,M3M 1H2,1115 Wilson Avenue,ON,09:00-21:00,09:00-21:00,09:00-21:00,09:00-21:00,09:00-21:00,43.725722,-79.48354
Yes,No,No,No,No,240 Sparks Street - Rexall,Ottawa,http://www.rexall.ca,,K1P 6C9,240 Sparks Street,ON,08:00-16:00,08:00-16:00,08:00-16:00,08:00-16:00,08:00-16:00,45.420237,-75.703091
Yes,No,No,No,No,6045 Creditview Road - Rexall,Mississauga,http://www.rexall.ca,,L5V 2A8,"6045 Creditview Road, Unit F001",ON,09:00-22:00,09:00-22:00,09:00-22:00,09:00-22:00,09:00-22:00,43.600265,-79.709934
Yes,No,Yes,No,No,"1620 Scott Street, Unit 29 - Rexall",Ottawa,http://www.rexall.ca,,K1Y 4S7,"1620 Scott Street, Unit 29",ON,08:00-18:00,08:00-18:00,08:00-18:00,08:00-18:00,08:00-18:00,45.403362,-75.733829
No,No,Yes,No,No,4890 Dundas Street West - Rexall,Etobicoke,http://www.rexall.ca,,M9A 1B5,4890 Dundas Street West,ON,09:00-21:00,09:00-21:00,09:00-21:00,09:00-21:00,09:00-21:00,43.649475,-79.528555
No,No,No,No,No,3100 Dixie Road - Rexall,Mississauga,http://www.rexall.ca,,L4Y 2A0,3100 Dixie Road,ON,09:00-22:00,09:00-22:00,09:00-22:00,09:00-22:00,09:00-22:00,43.608813,-79.585251
Yes,No,Yes,Yes,Yes,5779 Main Street Unit 101 - Rexall,Stouffville,http://www.rexall.ca,,L4A 4R2,"5779 Main Street, Unit 101",ON,09:00-21:00,09:00-21:00,09:00-21:00,09:00-21:00,09:00-21:00,43.966886,-79.263175
No,No,No,No,Yes,350 Cresthaven Drive - Rexall,Nepean,http://www.rexall.ca,,K2G 4S4,350 Cresthaven Drive,ON,09:00-22:00,09:00-22:00,09:00-22:00,09:00-22:00,09:00-22:00,45.273914,-75.708782
Yes,No,No,Yes,No,The Medicine Shoppe Pharmacy,Ottawa,https://www.medicineshoppe.ca/en/ontario/ottawa/the-medicine-shoppe-pharmacy-271-7021282,613-232-4337,K2P 2A8,381 Kent Street,ON,09:00-18:00,09:00-18:00,09:00-18:00,09:00-18:00,09:00-18:00,45.412714,-75.696838
Yes,No,Yes,No,Yes,Kennedy Medical Plex Pharmacy IDA,Brampton,https://www.guardian-ida-pharmacies.ca/en/ontario/brampton/kennedy-medical-plex-pharmacy-ida-7027581,905-455-2929,L6W 2W1,7-2 Kennedy Road South,ON,09:00-21:00,09:00-21:00,09:00-21:00,09:00-21:00,09:00-21:00,43.695688,-79.748271
No,No,Yes,No,Yes,London Medical Plex Pharmacy,London,https://www.guardian-ida-pharmacies.ca/en/ontario/london/london-medical-plex-pharmacy-7027570,519-473-4848,N6G 5C2,1807 Wonderland Road North,ON,09:00-21:00,09:00-21:00,09:00-21:00,09:00-21:00,09:00-21:00,43.02066,-81.312416
Yes,No,Yes,Yes,Yes,Credit Ridge Remedyâ€™s Rx Pharmacy,Brampton,http://www.bramptonpharmacist.ca,905-451-4888,L6X 0Z8,7-9525 Mississauga Road,ON,09:00-20:00,09:00-20:00,09:00-20:00,09:00-20:00,09:00-19:00,43.658365,-79.816897
No,No,Yes,No,No,Medpoint Care Pharmacy,London,https://www.guardian-ida-pharmacies.ca/en/ontario/london/medpoint-care-pharmacy-7015702Â ,519-434-1111,N6A 3N7Â ,"355 Wellington Street, Unit 169",ON,09:00-17:30Â ,09:00-17:30Â ,09:00-17:30Â ,09:00-17:30Â ,09:00-17:30Â ,42.984022,-81.245606
No,No,No,Yes,Yes,Loyalist Pharmacy - Pharmasave,Amherstview,https://loyalist.medmeapp.com/schedule,613-507-5800,K7N 1Y7,200 Speers Boulevard,ON,09:00-17:00,09:00-17:00,09:00-17:00,09:00-17:00,09:00-17:00,44.224098,-76.663118
No,Yes,Yes,Yes,Yes,844 Bathurst St. - Metro Drugs,Toronto,"http://www.metrodrugs.ca ",416-537-1900,M5R 3G1,844 Bathurst Street,ON,09:00-19:00,09:00-19:00,09:00-19:00,09:00-19:00,09:00-18:00,43.666256,-79.412098
Yes,Yes,No,No,No,129 Dundas Street East - Metro Drugs,Toronto,"http://www.metrodrugs.ca ",416-363-7300,M5B 2N6,129 Dundas Street East,ON,08:00-18:00,08:00-18:00,08:00-18:00,08:00-18:00,08:00-18:00,43.656554,-79.376161
Yes,Yes,No,Yes,Yes,Pharmaessence Drug Mart,"Georgetown ",http://www.pharmaessence.ca,905-873-9666,L7G 4A4,120 Guelph Street,ON,09:30-17:00,09:30-17:00,09:30-17:00,09:30-17:00,09:30-17:00,43.650737,-79.913837
No,No,No,Yes,No,TMC Pharmacy,London,"http://www.tmcpharmacy.ca ",519-914-1162,N6H 5L4,990 Gainsborough Road,ON,08:30-18:30,08:30-18:30,08:30-18:30,08:30-18:30,08:30-17:30,42.999011,-81.329217
Yes,Yes,Yes,No,Yes,Chatham Family Pharmacy,Chatham,"http://www.chathamfamilypharmacy.ca ",519-397-2324,N7M 2K5,835 Queen Street South,ON,08:00-18:00,08:00-18:00,08:00-18:00,08:00-18:00,08:00-18:00,42.388545,-82.165669
No,Yes,Yes,No,Yes,Pharmore Pharmacy,Markham,http://www.pharmorepharmacy.ca,905-294-1100,L3S 4N8,7 Eastvale Drive,ON,09:30-17:00,09:30-17:00,09:30-17:00,09:30-17:00,09:30-14:00,43.838376,-79.244699
No,No,Yes,No,No,Simpson's Pharmasave - Pharmasave,Niagara-on-the-Lake,"https://simpsonspharmacy.ca/ ",905-468-2121,L0S 1T0,1882 Niagara Stone Road,ON,09:00-18:00,09:00-18:00,09:00-18:00,09:00-18:00,09:00-18:00,43.235823,-79.105364
Yes,No,No,Yes,No,Lancaster Wellness Pharmacy (Guardian),Kitchener,"http://www.lancasterwellnesspharmacy.com ",519-745-4444,N2K 1L8,493 Lancaster Street West,ON,09:00-18:00,09:00-18:00,09:00-18:00,09:00-18:00,09:00-18:00,43.475642,-80.4849
No,Yes,Yes,Yes,No,Dale's Pharmacy Parliament,Toronto,"http://www.dalespharmacy.ca ",416-921-5700,M4X 1P8,572 Parliament Street,ON,09:00-17:30,09:00-17:30,09:00-17:30,09:00-17:30,09:00-17:30,43.667561,-79.369468
Yes,No,Yes,Yes,Yes,Keele and Finch Pharmacy - Pharmasave,Toronto,"https://pharmasave.com/store/pharmasave-university-heights-pharmacy/ ",647-349-2273,M3J 2G5,"1275 Finch Avenue West ",ON,09:00-17:00,09:00-17:00,09:00-17:00,09:00-17:00,09:00-17:00,43.763935,-79.487526
Yes,No,No,No,Yes,Winston Churchill and Dundas Pharmacy,Mississauga,,905-828-4100,L5L 2V7,3018 Winston Churchill Boulevard,ON,10:00-19:00,10:00-19:00,10:00-19:00,12:00-17:00,10:00-19:00,43.522813,-79.682616
No,Yes,No,No,Yes,Huron Street Dispensary - Pharmasave,Woodstock,"https://pharmasave.com/store/pharmasave-huron-street/ ",519-539-2888,N4S 6Z5,95 Huron Street,ON,09:00-19:00,09:00-19:00,09:00-19:00,09:00-19:00,09:00-19:00,43.1348,-80.748462
Yes,No,No,No,No,Hauser's Pharmacy,Hamilton,"http://www.hauserspharmacy.com ",905-381-4420,L9A 4V9,"1010 Upper Wentworth Street, Unit 1A",ON,09:00-17:00,09:00-17:00,09:00-17:00,09:00-17:00,09:00-17:00,43.216969,-79.865515
No,Yes,No,Yes,No,Bloor-Sherbourne Pharmacy,Toronto,,416-944-1122,M4X 1X6,608 Sherbourne Street,ON,09:30-19:00,09:30-19:00,09:30-19:00,09:30-18:00,09:30-18:00,43.672023,-79.377024
No,Yes,Yes,No,Yes,COVID-19 Care and Testing Centre â€“  Ray Friel,"Orleans ",https://ottawa.ca/en/recreation-and-parks/recreation-facilities/facility-listing/ray-friel-recreation-complex,613-288-5353,K1E 3E8,1585 Tenth Line Road,ON,08:00-18:00,08:00-18:00,08:00-18:00,08:00-18:00,08:00-18:00,45.472165,-75.491907
No,Yes,Yes,No,Yes,Marsellus Pharmacy - Pharmasave,Barrie,"https://pharmasave.com/barrie-marsellus-drive/prescriptions/ ",249-880-4606,L4N 0Y4,"2 Marsellus Drive ",ON,09:00-19:00,09:00-19:00,09:00-19:00,09:00-19:00,09:00-19:00,44.338735,-79.720795
Yes,No,Yes,No,No,Main Drug Mart,Toronto,"http://www.maindrugmartcompounding.com ",647-400-2588,M2J 1V1,"1333 Sheppard Avenue East ",ON,09:00-18:00,09:00-17:00,09:00-18:00,09:00-17:00,09:00-17:00,43.771467,-79.361094
No,Yes,No,No,No,799 Milner Ave - Walmart,Scarborough,http://www.walmart.ca/en/stores-near-me/morningside-scarborough-supercentre-3111,416-281-4643,M1B 3C3,799 Milner Avenue,ON,07:00-23:00,07:00-23:00,07:00-23:00,07:00-23:00,07:00-23:00,43.7976385,-79.201758
No,No,Yes,No,No,Centretown Pharmacy,Ottawa,http://www.facebook.com/centretownpharmacy/,613-422-2900,K2P 1Y1,326 Bank Street,ON,06:00-18:00,06:00-18:00,06:00-18:00,06:00-18:00,06:00-18:00,45.4142394,-75.695632
Yes,Yes,Yes,No,No,MediOne Rx,Thornhill,http://www.medionerx.com,289-807-0570,L4J 7Y1,100 Steeles Avenue West,ON,09:00-20:00,09:00-20:00,09:00-20:00,09:00-20:00,09:00-20:00,43.7979124,-79.425512
No,No,Yes,Yes,No,Brady's Drug Store,Essex,http://www.bradysdrugstore.com,519-961-9610,N8M 1B6,186 Talbot Street South,ON,09:00-20:00,09:00-18:00,09:00-18:00,09:00-18:00,09:00-18:00,42.1685043,-82.814964
No,Yes,No,Yes,Yes,Erin Creek Pharmasave,"Mississauga ",http://www.erincreekpharmacy.com,905-858-6844,"L5N 3E7 ",6400 Millcreek Drive,ON,09:00-18:00,09:00-18:00,09:00-18:00,09:00-18:00,09:00-17:00,43.5887472,-79.740333
Yes,No,No,No,Yes,Whitby COVID19 â€“ Assessment Centre,Whitby,http://durhamcovidswab.lh.ca/,,L1N 9V9,589 Water Street,ON,09:00-17:00,09:00-17:00,09:00-17:00,09:00-17:00,09:00-17:00,43.850009,-78.92117
Yes,No,Yes,No,Yes,Eagle Manor Pharmacy - Pharmasave,Toronto,https://pharmasave.com/store/pharmasave-eagle-manor/,416-241-1115,M9N 3P5,1901 Weston Road,ON,09:00-19:00,09:00-19:00,09:00-19:00,09:00-19:00,09:00-19:00,43.7004056,-79.51651
Yes,Yes,No,No,No,Long Sault Pharmacy - Pharmasave,Long Sault,http://www.southstormontpharmacies.com,613-534-3777,K0C 1P0,43 Long Sault Drive,ON,09:30-18:00,09:30-18:00,09:30-18:00,09:30-18:00,09:30-20:00,45.0291622,-74.894363
Yes,Yes,Yes,No,Yes,Cornerstone Pharmacy,Brampton,http://www.cornerstonepharmacy.ca,905-450-6500,L6Y 5X6,"8990 Chinguacousy Road, Unit B19",ON,09:00-21:00,09:00-21:00,09:00-21:00,09:00-21:00,09:00-21:00,43.664775,-79.781446
No,No,No,No,No,Pharmacy 101,Cobourg,"http://www.pharmacy101.ca ",905-269-0828,K9A 3S2,464 Division Street,ON,09:00-20:00,09:00-20:00,09:00-20:00,09:00-20:00,09:00-20:00,43.9658362,-78.167655
No,Yes,No,Yes,No,Morrison Pharmacy - Pharmasave,Niagara Falls,"https://pharmasave.com/store/pharmasave-morrison-pharmacy/ ",289-296-7600,L2E 0A8,4725 Dorchester Road,ON,09:00-19:00,09:00-19:00,09:00-19:00,09:00-19:00,09:00-19:00,43.1054499,-79.112166
Yes,Yes,Yes,No,No,"Saver's PharmaChoice ",Oshawa,http://www.bookmyshot.com/covid/365-881-5655,365-881-5655,L1H 1B8,97 King Street East,ON,09:00-20:00,09:00-20:00,09:00-20:00,09:00-20:00,09:00-19:00,43.8981304,-78.8599642
Yes,Yes,No,Yes,No,8300 Highway 27 - Walmart,Woodbridge,https://www.walmart.ca/en/stores-near-me/woodbridge-supercentre-1081,905-851-3894,L4H 0R9,8300 Highway 27,ON,07:00-23:00,07:00-23:00,07:00-23:00,07:00-23:00,07:00-23:00,43.7867812,-79.626782
Yes,Yes,No,Yes,Yes,1070 Major Mackenzie Drive East - Walmart,Richmond Hill,https://www.walmart.ca/en/stores-near-me/richmond-hill-supercentre-3195,905-883-5305,L4S 1P3,1070 Major Mackenzie Drive East,ON,07:00-23:00,07:00-23:00,07:00-23:00,07:00-23:00,07:00-23:00,43.87734,-79.408434
No,No,Yes,No,No,Auduzhe Mino Nesewinong (Place of Healthy Breathing),Toronto,,416-654-4184,M6G 2N1,22 Vaughan Road,ON,13:00-17:00,16:00-20:00,,,10:00-14:00,,
Yes,No,Yes,Yes,Yes,Pharmacie Jean Coutu Pharmacy,Rockland,http://www.jeancoutu.com,613-446-5054,"K4K 1L4 ",2246 Laurier Street,ON,09:00-21:00,09:00-21:00,09:00-21:00,09:00-21:00,09:00-21:00,45.503158,-75.223869
Yes,No,No,Yes,No,Matheson Bingham Memorial Assessment Centre,Matheson,https://www.porcupinehu.on.ca/en/your-health/infectious-diseases/novel-coronavirus/covid-assessment-centres/,888-962-8718,P0K 1N0,507 8th Avenue,ON,,,"09:00-15:00 ",,,48.541504,-80.470913
Yes,Yes,Yes,No,Yes,"Central Weston Pharmacy ","Toronto ",,416-241-2111,M9N 1X7,2105 Weston Road,ON,09:00-18:00,09:00-18:00,09:00-18:00,09:00-18:00,09:00-18:00,43.702398,-79.523408
Yes,Yes,Yes,No,Yes,Hogan Pharmacy,Sarnia,http://www.hoganpharmacy.com,519-332-1032,N7T 4X3,481 London Road,ON,08:30-19:30,08:30-19:30,08:30-19:30,08:30-19:30,08:30-19:30,42.977759,-82.389172
Yes,Yes,No,No,No,NorthPark Pharmacy,Waterloo,,519-885-7000,N2K 3P9,"99 Northfield Drive East, Unit 100",ON,10:00-17:00,10:00-17:00,09:00-15:00,10:00-17:00,09:00-15:00,43.504701,-80.525427
No,Yes,Yes,No,Yes,Chancellors Way Pharmacy,Guelph,https://chancellorswaypharmacy.com/,519-824-6445,N1G 0E9,"175 Chancellors Way, Unit 105",ON,09:00-17:00,09:00-17:00,09:00-17:00,09:00-17:00,09:00-17:00,43.523741,-80.23419
No,No,Yes,Yes,No,Med+ Pharmacy,Kingston,,613-531-0707,K7M 2X6,277 Bath Road,ON,09:00-18:00,09:00-18:00,09:00-18:00,09:00-18:00,09:00-18:00,44.240331,-76.524996
Yes,Yes,No,Yes,No,East York Temporary Testing Site,East York,https://ethp.ca/main/covid19-testing,,M4K 3W4,1081 Â½ Pape Avenue,ON,13:00-19:00,13:00-19:00,13:00-19:00,,,43.691678,-79.349427
Yes,No,Yes,Yes,No,Flemingdon Park temporary testing site #1,North York,https://ethp.ca/main/covid19-testing,647-477-1640,M3C 3J3,29 St. Dennis Drive,ON,,,,,13:00-19:00,43.717867,-79.331872
No,No,Yes,Yes,No,Flemingdon Park temporary testing site #2,North York,https://ethp.ca/main/covid19-testing,647-477-1640,M3C 3E7,165 Grenoble Drive,ON,13:00-19:00,13:00-19:00,13:00-19:00,,,43.71319,-79.327628
No,Yes,No,Yes,No,South Riverdale temporary testing site,Toronto,https://ethp.ca/main/covid19-testing,416-461-1925,M4M 3P3,955 Queen Street East,ON,10:30-12:30,,,,,43.66103,-79.339121
No,Yes,Yes,No,No,Warden Woods (Scarborough) temporary testing site,Scarborough,https://ethp.ca/main/covid19-testing,416-613-8061,M1L 1N9,76 Firvalley Court,ON,,,,13:00-19:00,13:00-19:00,43.703821,-79.277993
Yes,No,No,No,Yes,Temporary testing site: St. James Town Community Corner,Toronto,https://www.toronto.ca/home/covid-19/covid-19-what-you-should-do/covid-19-have-symptoms-or-been-exposed/covid-19-assessment-centres/,416-254-4006,M4X 1G3,200 Wellesley Street East,ON,,09:30-06:30,,,,43.668107,-79.373525
No,Yes,Yes,Yes,Yes,Wasaga Beach Regional Assessment Centre,Wasaga Beach,http://www.gbfht.ca/cac,705-444-5885,L9Z 1Z8,"1724 Mosley Street ",ON,09:00-17:00,09:00-17:00,09:00-17:00,09:00-17:00,09:00-17:00,44.479661,-80.068726
Yes,Yes,No,Yes,Yes,"Grey Bruce Health Services - South Hampton ",Southampton,"https://www.gbhs.on.ca ",519-378-1466,N0H 2L0,340 High Street,ON,16:00-20:00,16:00-20:00,,16:00-20:00,,44.49378,-81.365455
No,No,Yes,No,No,Oxford County Paramedic Services Mobile COVID-19 Testing,Woodstock,,855-905-6148,N4S 7V6,377 Mill Street,ON,08:00-20:00,08:00-20:00,08:00-20:00,08:00-20:00,08:00-20:00,43.114599,-80.760845
No,Yes,No,Yes,Yes,Alexandra Hospital Ingersoll Assessment Centre,Ingersoll,https://swpublichealth.ca/en/my-health/covid-19-assessment-centres.aspx,855-905-6148,N5C 1B8,29 Noxon Street,ON,08:00-16:00,08:00-16:00,08:00-16:00,08:00-16:00,08:00-16:00,43.032069,-80.875459
Yes,Yes,No,Yes,Yes,Grey Bruce Health Services Lion's Head,Lion's Head,http://www.gbhs.on.ca,519-378-1466,N0H 1W0,22 Moore Street,ON,,," 08:30-13:30",," 08:30-13:30",44.986125,-81.249163
Yes,No,No,No,No,"Central Pickering AC ",Pickering,http://www.lakeridgehealth.on.ca,,L1V 1B5,"1101 Kingston Road, Unit 140",ON,12:00-20:00,10:00-18:00,10:00-18:00,10:00-18:00,10:00-16:00,43.828368,-79.09729
Yes,Yes,No,Yes,Yes,10661 Chinguacousy Road - Shoppers Drug Mart,Brampton,https://stores.shoppersdrugmart.ca/en/store/1225/,905-495-7220,L7A 0N5,"10661 Chinguacousy Road, Bldg. C, Fletchers Meadow",ON,08:00-00:00,08:00-00:00,08:00-00:00,08:00-00:00,08:00-00:00,43.6979692,-79.82364
Yes,Yes,No,Yes,No,"Windsor Regional Hospital -Met COVID 19 Assessment Centre ",Windsor,http://www.wrh.on.ca,,N8W 1L9,1995 Lens Avenue,ON,08:00-19:00,08:00-19:00,08:00-19:00,08:00-19:00,08:00-19:00,42.299975,-82.99729
Yes,Yes,Yes,Yes,Yes,3029 Clayhill Road - Shoppers Drug Mart,Mississauga,https://stores.shoppersdrugmart.ca/en/store/735/,905-615-8887,L5B 4L2,3029 Clayhill Road,ON,09:00-22:00,09:00-22:00,09:00-22:00,09:00-22:00,09:00-22:00,43.571934,-79.627027
No,No,Yes,No,No,980 Central Park Drive - Shoppers Drug Mart,Brampton,https://stores.shoppersdrugmart.ca/en/store/693/,905-791-1797,L6S 3L7,980 Central Park Drive,ON,08:00-22:00,08:00-22:00,08:00-22:00,08:00-22:00,08:00-22:00,43.733765,-79.720892
Yes,No,No,Yes,No,930 North Park Drive - Shoppers Drug Mart,Brampton,https://stores.shoppersdrugmart.ca/en/store/694/,905-792-3800," L6S 3Y5",930 North Park Drive,ON,08:00-22:00,08:00-22:00,08:00-22:00,08:00-22:00,08:00-22:00,43.73421,-79.744613
No,No,No,No,No,Fairview Medical Pharmacy,Mississauga,,905-272-0000,L5A 4E7,3355 Hurontario Street #12,ON,09:00-18:00,09:00-18:00,09:00-18:00,09:00-18:00,09:00-14:00,43.5876019,-79.625953
No,Yes,No,No,Yes,McNabb Community Centre,Ottawa,https://www.ottawapublichealth.ca/en/shared-content/assessment-centres.aspx,613-737-8193,K1R 6E5,180 Percy Street,ON,10:30-17:30,10:30-17:30,10:30-17:30,10:30-17:30,10:30-17:30,45.409083,-75.701871
No,Yes,Yes,No,Yes,COVID 19 Testing Clinic Innisfil,Innisfil,http://www.rvh.on.ca,705-797-3120,L9S 2M6,7325 Yonge Street,ON,16:00-20:00,,16:00-20:00,,,44.298756,-79.610451
No,No,No,No,No,3427 Derry Road East - LifeLabs,Mississauga,https://www.lifelabs.com,"877-313-4982 ",L4T 1A8,3427 Derry Road East,ON,07:00-19:00,07:00-19:00,07:00-19:00,07:00-19:00,07:00-19:00,43.713544,-79.632409
Yes,Yes,No,Yes,Yes,BramCity Pharmasave,Brampton,https://www.pharmasavebramcity.com,905-460-0330,L6T 4W2,14 Lisa Street,ON,9:00-21:00,9:00-21:00,9:00-21:00,9:00-21:00,9:00-21:00,43.7130959,-79.727573
Yes,No,Yes,Yes,No,Midha Pharmacy Inc,Brampton,https://www.Pharmachoice.com,905-840-0057,L7A 4S2,1A-15 Fandor Way,ON,10:00-20:00,10:00-20:00,10:00-20:00,10:00-20:00,10:00-20:00,43.6900671,-79.815011
Yes,No,No,Yes,Yes,1730 Bur Oak Ave. - Shoppers Drug Mart,Markham,https://stores.shoppersdrugmart.ca/en/store/1308/,905-294-2116,L6E 0H8,1730 Bur Oak Avenue,ON,8:00 - 22:00,8:00-22:00,8:00-22:00,8:00-22:00,8:00-22:00,43.9004991,-79.266686
Yes,Yes,No,No,Yes,298 John St. - Shoppers Drug Mart,Thornhill,https://stores.shoppersdrugmart.ca/en/store/658/,905-886-3711,L3T 6M8,298 John Street,ON,8:00-0:00,8:00-0:00,8:00-0:00,8:00-0:00,8:00-0:00,43.819761,-79.398232
Yes,No,Yes,No,No,118 Tower Hill Road - Shoppers Drug Mart,Richmond Hill,https://stores.shoppersdrugmart.ca/en/store/1148/,905-737-4799,L4E 0K6,"118 Tower Road, Building C1",ON,9:00-22:00,9:00-22:00,9:00-22:00,9:00-22:00,9:00-22:00,43.9142609,-79.449601
Yes,No,Yes,Yes,No,314 Harwood Ave. South - Shoppers Drug Mart,Ajax,https://stores.shoppersdrugmart.ca/en/store/967/,905-683-5222,L1S 2J1,314 Harwood Avenue South,ON,9:00-22:00,9:00-22:00,9:00-22:00,9:00-22:00,9:00-22:00,43.8445141,-79.020235
No,Yes,Yes,Yes,No,600 Matheson Blvd West - Dynacare,Mississauga,https://www.dynacare.ca/covidtestingontario.aspx,,L5R 4C1,600 Matheson Boulevard West,ON,17:00 - 20:30,17:00 - 20:30,17:00 - 20:30,17:00 - 20:30,17:00 - 20:30,43.612276,-79.686534
No,Yes,No,No,Yes,10 Cottrelle Blvd - Dynacare,Brampton,https://www.dynacare.ca/covidtestingontario.aspx,,L6S 0E2,10 Cottrelle Boulevard,ON,18:00 - 20:30,18:00 - 20:30,18:00 - 20:30,18:00 - 20:30,18:00 - 20:30,43.759427,-79.71649
No,No,No,No,Yes,7700 Hurontario - Dynacare,Brampton,https://www.dynacare.ca/covidtestingontario.aspx,,L6Y 4M3,7700 Hurontario Street,ON,17:00 - 20:30,17:00 - 20:30,17:00 - 20:30,17:00 - 20:30,17:00 - 20:30,43.658288,-79.725166
No,No,Yes,No,No,9525 Mississauga Road - Dynacare,Brampton,https://www.dynacare.ca/covidtestingontario.aspx,,L6X 0Z8,9525 Mississauga Road,ON,17:00 - 20:30,17:00 - 20:30,17:00 - 20:30,17:00 - 20:30,17:00 - 20:30,43.65853,-79.81677
No,No,Yes,No,Yes,1801 Dundas St. East - Shoppers Drug Mart,Whitby,https://stores.shoppersdrugmart.ca/en/store/508/,905-436-1050,L1N 7C5," 1801 Dundas St. East",ON,8:00-22:00,8:00-22:00,8:00-22:00,8:00-22:00,8:00-22:00,43.8871879,-78.904668
No,No,Yes,Yes,Yes,20 Warren Ave. - Shoppers Drug Mart,Oshawa,https://stores.shoppersdrugmart.ca/en/store/615/,905-576-6070,L1J 0A1," 20 Warren Ave.",ON,8:00-00:00,8:00-00:00,8:00-00:00,8:00-00:00,8:00-00:00,43.8961319,-78.873314
Yes,No,Yes,Yes,No,300 Taunton Road East - Shoppers Drug Mart,Oshawa,https://stores.shoppersdrugmart.ca/en/store/616/,905-579-1900,L1G 7T4," 300 Taunton Road East, Unit 1",ON,8:00-22:00,8:00-22:00,8:00-22:00,8:00-22:00,8:00-22:00,43.9361541,-78.867377
No,Yes,No,No,No,"1111 Davis Drive, RR 5 - Shoppers Drug Mart",Newmarket,https://stores.shoppersdrugmart.ca/en/store/659/,905-898-7771,L3Y 8X2," 1111 Davis Drive, RR #5",ON,8:00-00:00,8:00-00:00,8:00-00:00,8:00-00:00,8:00-00:00,44.0681832,-79.431771
Yes,Yes,Yes,Yes,Yes,265 Main St. East - Shoppers Drug Mart,Milton,https://stores.shoppersdrugmart.ca/en/store/708/,905-878-4492,L9T 1P1," 265 Main St. East, Unit 104",ON,9:00-00:00,9:00-00:00,9:00-00:00,9:00-00:00,9:00-00:00,43.514591,-79.882253
Yes,Yes,Yes,Yes,Yes,720 Bristol Road West - Shoppers Drug Mart,Mississauga,https://stores.shoppersdrugmart.ca/en/store/711/,905-755-9696,L5R 4A3," 720 Bristol Road West",ON,8:00-22:00,8:00-22:00,8:00-22:00,8:00-22:00,8:00-22:00,43.5984222,-79.678857
Yes,No,Yes,Yes,No,75 Centennial Parkway North - Shoppers Drug Mart,Hamilton,https://stores.shoppersdrugmart.ca/en/store/755/,905-560-4800,L8E 2P2," 75 Centennial Parkway North",ON,8:00-22:00,8:00-22:00,8:00-22:00,8:00-22:00,8:00-22:00,43.229895,-79.765102
No,No,Yes,Yes,No,2126 Burnhamthorpe Road West - Shoppers Drug Mart,Mississauga,https://stores.shoppersdrugmart.ca/en/store/771/,905-820-7660,L5L 3A2," 2126 Burnhamthorpe Road West",ON,8:00-00:00,8:00-00:00,8:00-00:00,8:00-00:00,8:00-00:00,43.5447819,-79.681708
Yes,Yes,Yes,Yes,No,800 Niagara St. North - Shoppers Drug Mart,Welland,https://stores.shoppersdrugmart.ca/en/store/793/,905-735-7525,L3C 5Z4,"800 Niagara St. North, Unit H2",ON,9:00-22:00,9:00-22:00,9:00-22:00,9:00-22:00,9:00-22:00,43.0150265,-79.248269
Yes,No,No,Yes,Yes,825 Ontario Road - Shoppers Drug Mart,Welland,https://stores.shoppersdrugmart.ca/en/store/795/,905-788-2111,L3B 5V6," 825 Ontario Road",ON,8:00-22:00,8:00-22:00,8:00-22:00,8:00-22:00,8:00-22:00,42.9750271,-79.240142
No,No,No,No,No,49 Mountainash Road - Shoppers Drug Mart,Brampton,https://stores.shoppersdrugmart.ca/en/store/834/,905-458-5526,L6R 1W4," 49 Mountainash Road",ON,8:00-22:00,8:00-22:00,8:00-22:00,8:00-22:00,8:00-22:00,43.7595421,-79.728561
Yes,No,Yes,Yes,Yes,5576 Yonge St. - Shoppers Drug Mart,North York,https://stores.shoppersdrugmart.ca/en/store/848/,416-225-2321,M2N 5S2," 5576 Yonge St.",ON,8:00-00:00,8:00-00:00,8:00-00:00,8:00-00:00,8:00-00:00,43.779001,-79.415672
Yes,No,No,No,No,7235 Bellshire Gate - Shoppers Drug Mart,Mississauga,https://stores.shoppersdrugmart.ca/en/store/901/,905-670-3327,L5N 8A2," 7235 Bellshire Gate",ON,9:00-22:00,9:00-22:00,9:00-22:00,9:00-22:00,9:00-22:00,43.6217672,-79.742923
Yes,Yes,Yes,No,Yes,232 Cannon St. East - Shoppers Drug Mart,Hamilton,https://stores.shoppersdrugmart.ca/en/store/1053/,905-522-5707,L8L 0A9," 232 Cannon St. East",ON,9:00-22:00,9:00-22:00,9:00-22:00,9:00-22:00,9:00-22:00,43.2580381,-79.857035
No,Yes,Yes,Yes,No,25 Great Lakes Drive - Shoppers Drug Mart,Brampton,https://stores.shoppersdrugmart.ca/en/store/1093/,905-799-0414,L6R 2S5," 25 Great Lakes Drive",ON,8:00-00:00,8:00-00:00,8:00-00:00,8:00-00:00,8:00-00:00,43.731502,-79.760496
No,No,Yes,No,No,3950 Dougall Ave. - Shoppers Drug Mart,Windsor,https://stores.shoppersdrugmart.ca/en/store/1106/,519-969-2230,N9G 1X2," 3950 Dougall Ave., Unit 2",ON,8:00-00:00,8:00-00:00,8:00-00:00,8:00-00:00,8:00-00:00,42.254312,-83.000636
Yes,No,Yes,Yes,Yes,255 Morningside Ave. - Shoppers Drug Mart,Scarborough,https://stores.shoppersdrugmart.ca/en/store/1335/,416-282-1129,M1E 3E6," 255 Morningside Ave.",ON,9:00-20:00,9:00-20:00,9:00-20:00,9:00-20:00,9:00-20:00,43.7698881,-79.185325
No,No,Yes,Yes,No,91 Rylander Blvd. - Shoppers Drug Mart,Scarborough,https://stores.shoppersdrugmart.ca/en/store/1399/,416-724-5344,M1B 5M5," 91 Rylander Blvd., Unit 1022",ON,9:00-22:00,9:00-22:00,9:00-22:00,9:00-22:00,9:00-22:00,43.7971559,-79.151061
No,No,No,No,Yes,2670 Tecumseh Road West - Shoppers Drug Mart,Windsor,https://stores.shoppersdrugmart.ca/en/store/762/,519-252-5779,N9B 3P9," 2670 Tecumseh Road West",ON,8:00-00:00,8:00-00:00,8:00-00:00,8:00-00:00,8:00-00:00,42.291815,-83.058778
No,Yes,No,Yes,No,770 Lawrence Ave West - Shoppers Drug Mart,North York,https://stores.shoppersdrugmart.ca/en/store/821/,416-787-0238,M6A 3C6," 770 Lawrence Ave. West",ON,0:00-0:00,0:00-0:00,0:00-0:00,0:00-0:00,0:00-0:00,43.7151906,-79.452363
Yes,No,Yes,Yes,No,7060 Warden Ave. - Shoppers Drug Mart,Markham,https://stores.shoppersdrugmart.ca/en/store/847/,905-474-1414,L3R 5Y2," 7060 Warden Ave.",ON,8:00-00:00,8:00-00:00,8:00-00:00,8:00-00:00,8:00-00:00,43.8214268,-79.326931
No,Yes,No,Yes,No,1530 Albion Road - Shoppers Drug Mart,Etobicoke,https://stores.shoppersdrugmart.ca/en/store/925/,416-741-7711,M9V 1B4," 1530 Albion Road",ON,9:00-21:00,9:00-21:00,9:00-21:00,9:00-21:00,9:00-21:00,43.7410036,-79.583605
Yes,No,No,No,Yes,"232 Toronto St. South, RR #1 - Shoppers Drug Mart",Uxbridge,https://stores.shoppersdrugmart.ca/en/store/931/,905-852-3345,L9P 0C4," 232 Toronto St. South, RR #1",ON,8:00-22:00,8:00-22:00,8:00-22:00,8:00-22:00,8:00-22:00,44.0966878,-79.129199
Yes,No,Yes,No,Yes,7980 Menard St. - Shoppers Drug Mart,Windsor,https://stores.shoppersdrugmart.ca/en/store/1102/,519-945-2304,N8S 1V9," 7980 Menard St. ",ON,09:00-21:00,09:00-21:00,09:00-21:00,09:00-21:00,09:00-21:00,42.3339061,-82.943313
Yes,No,Yes,No,Yes,11500 Tecumseh Road East - Shoppers Drug Mart,Windsor,https://stores.shoppersdrugmart.ca/en/store/1118/,519-735-2121,N8N 1L7," 11500 Tecumseh Road East",ON,8:00-00:00,8:00-00:00,8:00-00:00,8:00-00:00,8:00-00:00,42.3133091,-82.900515
Yes,Yes,Yes,Yes,Yes,15 Westney Road North - Shoppers Drug Mart,Ajax,https://stores.shoppersdrugmart.ca/en/store/1224/,905-426-3355,L1T 1P4," 15 Westney Road North",ON,7:00-0:00,7:00-0:00,7:00-0:00,7:00-0:00,7:00-0:00,43.859426,-79.040164
No,Yes,No,No,Yes,9200 Dufferin St. - Shoppers Drug Mart,Vaughan,https://stores.shoppersdrugmart.ca/en/store/1282/,289-304-8762,L4K 0C6," 9200 Dufferin St.",ON,9:00-0:00,9:00-0:00,9:00-0:00,9:00-0:00,9:00-0:00,43.8418544,-79.483474
No,Yes,No,No,Yes,7205 Goreway Drive - Shoppers Drug Mart,Mississauga,https://stores.shoppersdrugmart.ca/en/store/1376/,905-677-7181,L4T 2T9," 7205 Goreway Drive",ON,8:00-22:00,8:00-22:00,8:00-22:00,8:00-22:00,8:00-22:00,43.7187334,-79.63621
No,Yes,Yes,Yes,No,520 Charolais Blvd. - Shoppers Drug Mart,Brampton,https://stores.shoppersdrugmart.ca/en/store/1466/,905-451-5275,L6Y 0R5," 520 Charolais Blvd.",ON,8:00-22:00,8:00-22:00,8:00-22:00,8:00-22:00,8:00-22:00,43.650043,-79.761172
No,No,No,Yes,Yes,University of Toronto - Scarborough Campus,Toronto,https://www.shn.ca/covid19-assess/,416-495-2601," M1C 1A4 ",1265 Military Trail,ON,08:00-18:30,08:00-18:30,08:00-18:30,08:00-18:30,08:00-18:30,43.78315243,-79.18703624
No,Yes,Yes,No,Yes,"COVID-19 Assessment Centre for Children with Medical Complexity (CMC) and Children with Developmental Disorders (CDD), Holland Bloorview Kids Rehab Hospital",Toronto,,416-419-4623,M4G 1R8,150 Kilgour Road,ON,17:00-21:00,,17:00-21:00,,,43.71830253,-79.3742903
Yes,No,Yes,No,Yes,"COVID-19 Assessment Centre for Children with Medical Complexity (CMC) and Children with Developmental Disorders (CDD), SickKids",Toronto,,416-419-4623,M5G 1X8,555 University Avenue,ON,08:00-16:00,08:00-16:00,08:00-16:00,08:00-16:00,08:00-16:00,43.657098,-79.38773711
Yes,Yes,No,No,Yes,North Durham COVID Assessment Clinic - Sunderland Site,Sunderland,,,L0C 1H0,120 River Street,ON,09:00-12:00&12:30-16:00,,,,,44.2625563,-79.0682532
No,No,No,Yes,Yes,Thorncliffe Park Temporary Testing Site #2,Toronto,https://ethp.ca/main/covid19-testing,647-477-1640,M4H 1J7,48 Thorncliffe Park Drive,ON,13:00-19:00,13:00-19:00,13:00-19:00,13:00-19:00,13:00-19:00,43.70293592,-79.34272394
Yes,Yes,No,Yes,No,Oakridge (Scarborough) Temporary Testing Site,Scarborough,https://ethp.ca/main/covid19-testing,416-613-8061,M1L 3E7,63 Pharmacy Avenue,ON,,,,13:00-19:00,13:00-19:00,43.69498012,-79.28360498
No,Yes,Yes,No,Yes,255 Silver Linden Drive - Walmart,Richmond Hill,https://www.walmart.ca/en/stores-near-me/richmond-hill-south-supercentre-1116,905-747-0925,L4B 4V5,255 Silver Linden Drive,ON,7:00-23:00,7:00-23:00,7:00-23:00,7:00-23:00,7:00-23:00,43.8420662,-79.41588
No,Yes,No,No,Yes,North Durham COVID Assessment Clinic - Beaverton Site,Beaverton,,,L0K 1A0,360 Bay Street,ON,,,,,,44.42876718,-79.15436948
Yes,No,No,No,No,1500 Dundas St. East - Walmart,Mississauga,https://www.walmart.ca/en/stores-near-me/mississauga-dixie-supercentre-1126,905-615-1290,L4X 1L4,1500 Dundas St. East,ON,7:00-23:00,7:00-23:00,7:00-23:00,7:00-23:00,7:00-23:00,43.6106224,-79.578207
Yes,No,Yes,No,No,"Barrie and Community Family Medicine Clinic COVID-19,Cold and Flu",Barrie,,,L4N 0G5,"829 Big Bay Point Road, Unit D13",ON,16:30-21:00,16:30-21:00,16:30-21:00,16:30-21:00,16:30-21:00,44.363276,-79.615607
No,Yes,No,No,No,North Durham COVID Assessment Clinic - Manilla Site,Manilla,,,K0M 2J0,16990 Simcoe Street,ON,,,,,09:00-12:00&12:30-16:00,44.30695053,-78.98889354
Yes,Yes,No,Yes,Yes,"Four Corners CHC-Community Testing Site ","Malton ",https://www.fourcornershealthcentre.ca/,416-312-0566,L4T 2T9,7205 Goreway Drive,ON,12:00-16:00,12:00-16:00,08:00-12:00,12:00-16:00,08:00-12:00,43.71828989,-79.63741124
Yes,No,No,Yes,No,"Rexdale Hub COVID-19 Community Testing Site ",Toronto,https://www.rexdalechc.com/about/news/~30-Free-COVID-19-Testing,416-748-4650,M9V 3S6,21 Panorama Court,ON,09:00-17:00,09:00-17:00,09:00-17:00,09:00-17:00,09:00-17:00,43.74634533,-79.5813185
Yes,No,No,Yes,No,"Queen Square COVID-19, Cold and Flu Clinic ",Brampton,https://www.queensquarefht.ca/covid-19/,," L7A 1K5",11692 Hurontario Street,ON,,10:00-16:00,10:00-16:00,10:00-16:00,10:00-16:00,43.73093555,-79.82269001
Yes,Yes,Yes,Yes,Yes,"Dufferin-Caledon COVID-19 Cold and Flu Clinic ",Orangeville,https://www.wdgpublichealth.ca/your-health/covid-19-information-public/testing-and-assessment-centres-wdg/dufferin-caledon-covid-19,888-530-1319,L9W7N7,1 Elizabeth Street Suite L2,ON,16:00-20:00,16:00-20:00,16:00-20:00,16:00-20:00,,43.92127028,-80.09931712
No,No,No,Yes,Yes,Mississauga Health Cough and Flu Clinic,"Mississauga ",,905-361-1448,L5K 2N6,"2695 North Sheridan Way, Suite 120",ON,09:00-16:00,09:00-16:00,09:00-16:00,09:00-16:00,09:00-16:00,43.51284614,-79.66377342
No,No,No,Yes,No,Lawn Bowling Club Community Testing Site,Brampton,,905-796-4922,L6Y 4Z5,8910 McLaughlin Road  South,ON,10:00-19:00,10:00-19:00,10:00-19:00,10:00-19:00,13:30-16:30,43.66737207,-79.75879508
Yes,No,Yes,Yes,No,Centre for Immigrant and Community Services (CICS) - Scarborough Health Network,Toronto,,,M1S 5G5,2330 Midland Avenue,ON,08:00-18:30,08:00-18:30,08:00-18:30,08:00-18:30,08:00-18:30,43.77830322,-79.27603967
Yes,Yes,Yes,No,Yes,West Elgin Community Health Centre COVID Assessment Centre,West Lorne,https://wechc.on.ca/,519-857-2683,N0L 2P0,153 Main Street,ON,08:30-16:30,,08:30-16:30,,08:30-16:30,42.60481997,-81.60565803
No,Yes,Yes,No,Yes,1210 Castlemore Ave - Dynacare,Markham,https://www.dynacare.ca/covidtestingontario.aspx,,L6E 0H7,1210 Castlemore Avenue,ON,17:00 - 20:30,17:00 - 20:30,17:00 - 20:30,17:00 - 20:30,17:00 - 20:30,43.904327,-79.267905
Yes,No,Yes,No,Yes,Town Square Pharmacy,New Hamburg,,519-662-9995,N3A 1R1,"100 Mill Street, Unit D",ON,"9:00-19:00 ","9:00-19:00 ","9:00-19:00 ","9:00-19:00 ","9:00-19:00 ",43.3797568,-80.7111327
No,No,Yes,No,Yes,SOAHAC Chippewa Assessment Centre,Melbourne,,877-289-0381,N0L1Y0,6609 Switzer Drive,ON,08:30-16:00,08:30-16:00,08:30-16:00,08:30-16:00,08:30-16:00,42.80904094,-81.53645678
No,Yes,Yes,Yes,Yes,"MyHealth Community Testing Site ",Brampton,https://www.covid-response.ca/,888-503-1086,L6R 1Z1,"2260 Bovaird Drive East, Suite 105B",ON,10:00-18:00,10:00-18:00,10:00-18:00,10:00-18:00,10:00-18:00,43.75154856,-79.73854116
No,Yes,Yes,Yes,No,"Embassy Grand Convention Centre  ",Brampton,,905-366-7374,L6P 0B1,8800 The Gore Road,ON,,10:00-20:00,10:00-20:00,10:00-20:00,10:00-20:00,43.76792403,-79.65880998
No,No,Yes,No,Yes,Carefirst Community Testing Site,Scarborough,https://www.carefirstontario.ca,416-646-5108,M1V 0G2,"300 Silver Star Boulevard ",ON,,,,14:00-18:30,,43.81258796,-79.29489232
Yes,No,No,No,Yes,Black Creek Community Health Centre - Sheridan Mall,Toronto,https://www.bcchc.com,416-246-2388,M3N 3A1,"2202 Jane Street, Unit 5 ",ON,,,,,,43.75902047,-79.51880993
No,No,No,Yes,No,Durham Manor - Pickering CAC,Pickering,,,"L1V 1Y3 ",1970 Brock Road,ON,09:00-17:00,09:00-17:00,09:00-17:00,09:00-17:00,09:00-17:00,43.84814712,-79.07476874
No,No,No,Yes,Yes,Rexdale CHC - Pop-Up Sites,Toronto,,,M9V 4L9,10 Rampart Road,ON,09:00-17:00,09:00-17:00,09:00-17:00,09:00-17:00,09:00-17:00,43.73478323,-79.58871093
No,Yes,No,Yes,Yes,"London InterCommunity Health Centre ",London,,,N5W 2Z1,"659 Dundas Street ",ON,09:30-16:00,09:30-16:00,09:30-16:00,09:30-16:00,09:30-16:00,42.989044,-81.229724
